{"type":"FeatureCollection","features":[{"type":"Feature","properties":{"country":"Kenya","country_code":"KEN","species_name":"Eucalyptus_nitens","genus":"Eucalyptus","species":"nitens","suitability_name":"Very suitable","suitability_rank":1,"source_layer":"KCFP_SSMT_Kenya","tz":null,"soil_description":null},"geometry":{"type":"Polygon","coordinates":[[[35.4145847761,-0.7919947144],[35.4145775261,-0.8003754334],[35.4062670653,-0.8003681026],[35.4062597363,-0.8087337077],[35.3979493472,-0.808711309],[35.3979639623,-0.7919801904],[35.3979711424,-0.7836296986],[35.3979768677,-0.7836297036],[35.4145919232,-0.7836440704],[35.4145847761,-0.7919947144]]]}},{"type":"Feature","properties":{"country":"Kenya","country_code":"KEN","species_name":"Eucalyptus_nitens","genus":"Eucalyptus","species":"nitens","suitability_name":"Very suitable","suitability_rank":1,"source_layer":"KCFP_SSMT_Kenya","tz":null,"soil_description":null},"geometry":{"type":"Polygon","coordinates":[[[35.4637856156,-0.7920523562],[35.4644497239,-0.7912279611],[35.4644490243,-0.7920529266],[35.4637856156,-0.7920523562]]]}},{"type":"Feature","properties":{"country":"Kenya","country_code":"KEN","species_name":"Eucalyptus_nitens","genus":"Eucalyptus","species":"nitens","suitability_name":"Very suitable","suitability_rank":1,"source_layer":"KCFP_SSMT_Kenya","tz":null,"soil_description":null},"geometry":{"type":"Polygon","coordinates":[[[35.4561522054,-0.7753136486],[35.4478414147,-0.7753066285],[35.447848358,-0.7669406413],[35.4395376588,-0.7669336816],[35.4395445427,-0.7585677699],[35.4312339351,-0.7585608702],[35.4312407707,-0.7501798354],[35.4312475078,-0.7418291986],[35.439558084,-0.7418359452],[35.4395647414,-0.7334700323],[35.4478753777,-0.7334766882],[35.4478819442,-0.725110699],[35.4561926406,-0.7251172637],[35.4561991167,-0.7167511993],[35.4645098731,-0.7167576722],[35.4645034121,-0.7251238131],[35.4728142586,-0.7251303472],[35.4728207045,-0.7167641309],[35.4811316107,-0.7167705745],[35.4811442483,-0.7000379904],[35.4645225701,-0.7000253893],[35.4645288061,-0.6916592474],[35.4395968953,-0.6916404622],[35.4395906156,-0.700006377],[35.4312801149,-0.70000001],[35.4312864092,-0.6916341713],[35.4229759979,-0.6916278659],[35.4230064053,-0.6497990489],[35.4223280921,-0.6497985647],[35.4146961411,-0.6497931111],[35.4147077995,-0.6330617348],[35.4063976381,-0.6330559366],[35.4063980929,-0.6323958193],[35.4066270992,-0.6318699958],[35.4095314379,-0.6152820911],[35.3993709195,-0.6079543689],[35.4064145936,-0.6079590997],[35.4064200941,-0.5995934868],[35.4230403895,-0.5996044576],[35.4230511107,-0.5828729247],[35.4147409498,-0.5828675985],[35.4147513915,-0.5661362164],[35.4230615284,-0.5661413897],[35.423076586,-0.5410440873],[35.4147664839,-0.5410391433],[35.4147713627,-0.5326734514],[35.4064613479,-0.5326685718],[35.4064661616,-0.5243029572],[35.3981562341,-0.5242981431],[35.3981609826,-0.5159326041],[35.3898511424,-0.5159278568],[35.3898558252,-0.5075623954],[35.3815460722,-0.5075577145],[35.3815552281,-0.4908269434],[35.3898649611,-0.4908314701],[35.3898780907,-0.4657350802],[35.3815683888,-0.4657307841],[35.3815767783,-0.4490000115],[35.3898864602,-0.4490041524],[35.3898905314,-0.4406386882],[35.381580857,-0.4406346244],[35.3816031263,-0.391835258],[35.3816072671,-0.3820769079],[35.3899168802,-0.3820804324],[35.3899203381,-0.3737149656],[35.3982300199,-0.3737184043],[35.3982333935,-0.3653528612],[35.4148529705,-0.3653595614],[35.4148594587,-0.3486281678],[35.4231693464,-0.3486313544],[35.423184202,-0.3068024852],[35.4148743487,-0.3067996809],[35.4148780164,-0.2955891801],[35.4148797725,-0.2900682849],[35.4231896133,-0.2900709355],[35.4231922052,-0.2817051609],[35.4564323014,-0.2817153979],[35.4564324507,-0.281218163],[35.4861157424,-0.28578872],[35.5134341562,-0.274662151],[35.5322977855,-0.2630239217],[35.5398345773,-0.2569995732],[35.5398287644,-0.256640172],[35.5402850087,-0.2566402973],[35.5561668088,-0.2566446172],[35.5561690126,-0.248277642],[35.5644800908,-0.2482798213],[35.5644813411,-0.2433934561],[35.5644822165,-0.2399127734],[35.5716714144,-0.2399145918],[35.5727933625,-0.2399148742],[35.5727934985,-0.2393716763],[35.5727954103,-0.231547753],[35.5894179102,-0.2315517933],[35.5894180068,-0.2311515242],[35.5894198807,-0.2231672954],[35.5894217692,-0.2148172585],[35.572799288,-0.2148135102],[35.5728000157,-0.2115256625],[35.5728028749,-0.1980792669],[35.5395588217,-0.1980723049],[35.5395594817,-0.1948635869],[35.5395621488,-0.1813386486],[35.5312513263,-0.1813370454],[35.531254368,-0.1646035376],[35.5255762455,-0.1646025413],[35.4980118443,-0.1645976817],[35.4980132711,-0.1562137391],[35.4980146179,-0.1478647689],[35.4897041787,-0.147863446],[35.4897066611,-0.1311306825],[35.4813963023,-0.1311295065],[35.481399475,-0.106030586],[35.4647789962,-0.1060286775],[35.4647807465,-0.0892963647],[35.4564706235,-0.0892955582],[35.456471388,-0.0809294773],[35.44843537,-0.0809287688],[35.4398513713,-0.0809280103],[35.4398520638,-0.0725620801],[35.4315421703,-0.072561421],[35.4315427878,-0.0641955678],[35.4232329722,-0.0641949816],[35.4232349273,-0.0226465927],[35.4250287968,-0.0204279164],[35.4254254697,-0.0240120211],[35.4379332411,-0.0254906972],[35.4475351821,-0.020384476],[35.4555779143,-0.0022629575],[35.4429175574,0.0112916686],[35.4398548245,0.0121015746],[35.4398546992,0.0194631428],[35.412018114,0.0194625482],[35.4119494405,0.0194807077],[35.4066213299,0.0208896132],[35.4066155718,0.0208911363],[35.4066153887,0.0278280563],[35.3983058044,0.0278278018],[35.3983055113,0.036193349],[35.4066150971,0.0361936812],[35.4066147294,0.0445593044],[35.4149243913,0.0445597125],[35.4149239484,0.0529254131],[35.4232336874,0.0529258967],[35.4232331697,0.0612916737],[35.4315429857,0.0612922325],[35.4315423926,0.0696580866],[35.4232325761,0.0696574507],[35.4232319066,0.0780232277],[35.3650653074,0.0780182025],[35.3650659877,0.0696529653],[35.3567567811,0.0696523185],[35.3567579129,0.0529219974],[35.3401397394,0.0529210103],[35.3401401906,0.0445560056],[35.323527766,0.0445551727],[35.3152189194,0.0445547534],[35.3152133774,0.0472448252],[35.3152130601,0.0529195227],[35.3069043231,0.0529190245],[35.3069024838,0.0780130967],[35.3152112259,0.078013832],[35.3152096124,0.0947433698],[35.3235184354,0.0947442605],[35.3235142804,0.1282036517],[35.3401321777,0.1282060507],[35.3401282616,0.1533010632],[35.3484373351,0.1533024941],[35.3484358784,0.1616675761],[35.3650542651,0.161670582],[35.3650511319,0.1784010569],[35.348432731,0.178397739],[35.3484310412,0.1867628217],[35.3401219486,0.1867798819],[35.3401201772,0.195144918],[35.3401183324,0.2034910858],[35.348427425,0.2035118525],[35.3484255072,0.2118580664],[35.3567346858,0.2118600382],[35.3567326908,0.2202251974],[35.3650419512,0.2202272424],[35.3650398837,0.2285924791],[35.3567306177,0.2285903565],[35.3567284691,0.2369555154],[35.3635896548,0.2369573327],[35.3682012044,0.230568642],[35.3726857182,0.2323889752],[35.3764466761,0.2369607279],[35.38165651,0.2369621006],[35.381658644,0.2285967091],[35.3982777121,0.2286009216],[35.3982687543,0.2620631033],[35.3899591614,0.262060692],[35.3899542125,0.2787916281],[35.3982638168,0.2787941933],[35.3982623983,0.2834181962],[35.4220835335,0.2632770735],[35.4418924358,0.2633213997],[35.4445778544,0.2660432741],[35.4418071993,0.2841427971],[35.4236957562,0.3086346427],[35.427204534,0.3294639263],[35.4148625293,0.3404232435],[35.4148605536,0.3457248877],[35.4088944364,0.3457226151],[35.4065499581,0.3478043755],[35.4065442942,0.3624529617],[35.4027592605,0.3624514471],[35.405451279,0.363813179],[35.4406188491,0.3521270352],[35.4468937981,0.3584787127],[35.4449974016,0.3802943853],[35.4467997119,0.3821094833],[35.4583446569,0.4174446291],[35.444677346,0.4591739176],[35.4473468234,0.4718782287],[35.4599013733,0.4845862131],[35.449975457,0.5009113657],[35.4400473404,0.5127054386],[35.4364744533,0.509983133],[35.42655407,0.5236876917],[35.439903312,0.582699279],[35.4398098313,0.63364642],[35.4396439195,0.6341114037],[35.4396408775,0.6385416142],[35.4479454656,0.6385474045],[35.4479338163,0.6552793889],[35.4562443919,0.6552853213],[35.4562324542,0.6720381307],[35.456238404,0.6720381351],[35.4562323439,0.6803835284],[35.4645370877,0.6803896702],[35.4645247427,0.6971219548],[35.4728355394,0.6971282365],[35.4728292691,0.7054944537],[35.4811401553,0.7055007959],[35.4811274202,0.7222333787],[35.4977494761,0.7222463192],[35.4977430271,0.7306127595],[35.5060541818,0.7306192821],[35.5060344356,0.7557188274],[35.4977232341,0.7557120817],[35.4977164888,0.7640785214],[35.4810942762,0.7640648321],[35.4810804961,0.7807974105],[35.4729199058,0.7807905185],[35.4727747175,0.781707855],[35.4727745397,0.7819206985],[35.4749019824,0.7891584326],[35.4810734763,0.7891848232],[35.4810677555,0.8030477218],[35.4838601623,0.8058987128],[35.4893704169,0.8059035029],[35.4893662194,0.8107853916],[35.4893559244,0.8226362273],[35.4814519432,0.8226292112],[35.480459053,0.8477485416],[35.4801282182,0.8561145553],[35.4797574358,0.8654884451],[35.4761412155,0.8764781747],[35.4726814507,0.8799718787],[35.4726803091,0.8811849242],[35.4714813137,0.8811837798],[35.4680454814,0.8846532684],[35.4652998081,0.9037253483],[35.448233776,0.9037279992],[35.4481833555,0.925523704],[35.4402255257,0.9313710024],[35.4393863972,0.9319875749],[35.4382941639,0.932790122],[35.4310734718,0.9339132948],[35.4227670725,0.9352053184],[35.4149236364,0.9364252998],[35.3914330396,0.973148505],[35.3894811799,0.9761996874],[35.3869813166,0.9801074766],[35.3728432371,0.9864533714],[35.3728304226,0.9982024537],[35.3478667763,0.9981746088],[35.3395887882,0.998165332],[35.3395839555,1.0025199197],[35.3395701089,1.0148952802],[35.3478804446,1.0149047474],[35.3478710093,1.0232697983],[35.3146300526,1.0232314842],[35.3146107786,1.0399609579],[35.3229209444,1.0399707259],[35.322911212,1.0483355405],[35.3146010234,1.0483256939],[35.3145911919,1.0566904303],[35.3062810603,1.0566804819],[35.3062711274,1.0650451381],[35.297961052,1.0650350894],[35.2979510184,1.0733996661],[35.2813310586,1.0733793428],[35.2813209013,1.0817437606],[35.2730110162,1.0817334855],[35.2730007581,1.0900978233],[35.2813106651,1.0901081787],[35.2813003491,1.0984725944],[35.2729904201,1.0984621604],[35.2729800021,1.106826497],[35.2646701282,1.1068159611],[35.264649011,1.1235444724],[35.2397197253,1.123512243],[35.2396872397,1.1486042859],[35.2230679708,1.148582198],[35.2230569353,1.1569460514],[35.2147473964,1.1569348896],[35.2147362556,1.1652986617],[35.2064267736,1.1652873954],[35.2064042019,1.1820147734],[35.214713733,1.1820262014],[35.2146908902,1.1987537396],[35.1814530496,1.1987072298],[35.181498811,1.1652534484],[35.1648805741,1.1652306958],[35.1648462259,1.1903205411],[35.1565371554,1.1903088817],[35.1565138005,1.2070352798],[35.1814414065,1.2070706734],[35.1814059902,1.2321610003],[35.1730966303,1.2321489822],[35.1730813344,1.2428056954],[35.1788565272,1.2455751128],[35.2013172344,1.2410427175],[35.2380817412,1.2619363314],[35.2578627601,1.2555868047],[35.2704661986,1.2446949076],[35.2651096894,1.2283499744],[35.2543483976,1.2256232012],[35.2516464088,1.2283463331],[35.2373094132,1.2406280305],[35.2336342658,1.2437762356],[35.2312533291,1.2432682489],[35.2165886644,1.2401394418],[35.2031375611,1.2283326418],[35.1923931375,1.2174347946],[35.1933133443,1.2100811271],[35.2283040985,1.2238002124],[35.2417749405,1.2210800762],[35.2679334417,1.1801375144],[35.2728969746,1.1753169464],[35.3147613289,1.1346553111],[35.3273977381,1.1056000852],[35.3697078599,1.0682824287],[35.3931608895,1.0265110029],[35.397045688,1.023325842],[35.4075593757,1.0147054629],[35.4381320421,1.0028080237],[35.4507248581,0.9937259039],[35.4615522257,0.9746537766],[35.4687007558,0.9732090893],[35.4705434082,0.9728366925],[35.4759390886,0.9673871455],[35.4809120516,0.9679615369],[35.5073657641,0.9710169387],[35.5133842317,0.9732777712],[35.5141529583,0.973566542],[35.538788398,0.9828208515],[35.5576877644,0.9673785901],[35.5666717839,0.9673775275],[35.5723436284,0.9611344024],[35.5723481609,0.9565826368],[35.5764750466,0.9565867883],[35.5765747888,0.956476997],[35.5649672333,0.9227818378],[35.5724296032,0.8707470195],[35.5724361405,0.8634871505],[35.5641498153,0.8417159797],[35.5626318495,0.8394558852],[35.547547477,0.816997264],[35.5457628122,0.8143401897],[35.5392462556,0.8046382051],[35.5391754726,0.8045328232],[35.537643598,0.7892326696],[35.5365383014,0.7781945904],[35.541071528,0.7545788076],[35.5196180592,0.7018181043],[35.5124836136,0.6763907502],[35.5143163715,0.6590429906],[35.5227196488,0.672544328],[35.5227316881,0.655332283],[35.5145940369,0.6553265838],[35.514420516,0.6553264612],[35.5144319483,0.6385932748],[35.5158439791,0.6385942396],[35.5227430932,0.638598947],[35.5227806879,0.580032261],[35.5144696324,0.5800271081],[35.5144797218,0.5633141715],[35.5144846619,0.554947543],[35.514487535,0.5500229451],[35.5109571492,0.5472742403],[35.5124027245,0.5298464641],[35.5128363848,0.5246174959],[35.5145090533,0.5229367792],[35.5159570264,0.5214818335],[35.5311339462,0.5062314995],[35.5311347403,0.5047366883],[35.5326207345,0.504737487],[35.535428589,0.501915974],[35.5394493364,0.4980915305],[35.5394502325,0.4963743305],[35.5412536672,0.4963752805],[35.5477645919,0.4901821298],[35.5477720049,0.4880118157],[35.5500450061,0.488012992],[35.5544161212,0.4838551355],[35.5557476584,0.4796689029],[35.5560816673,0.4786187967],[35.5560853029,0.4712821688],[35.558414836,0.4712833293],[35.5690574702,0.4378202748],[35.5727289101,0.4262753584],[35.5743783612,0.4210884598],[35.581051487,0.4001029344],[35.5823591638,0.3959903783],[35.586381207,0.3833409119],[35.5865880304,0.333452469],[35.5812751283,0.3206851718],[35.5810812869,0.3202193655],[35.5743101799,0.3039485561],[35.5727764392,0.3002631142],[35.560379627,0.2704760463],[35.5544917794,0.2563295783],[35.5662350909,0.2473015802],[35.5913823267,0.2636548504],[35.600441046,0.2509988609],[35.5907125552,0.2092370735],[35.5925872942,0.1920379513],[35.6079345649,0.1803001554],[35.6309861876,0.1803493996],[35.6349505246,0.1803578662],[35.6485057298,0.1721469128],[35.6620098809,0.1730811153],[35.6764309913,0.153356349],[35.6864669464,0.1396289532],[35.7062694677,0.1396703562],[35.7224246248,0.143397134],[35.7224255634,0.1366452922],[35.7141131872,0.1366255304],[35.7141142904,0.1282571895],[35.7058019841,0.1282561127],[35.7058030193,0.119887842],[35.6891786218,0.1198858221],[35.6891804936,0.1031495618],[35.6808684048,0.1031486892],[35.6808706924,0.078044513],[35.6891827747,0.0780451733],[35.6891833945,0.0696770424],[35.6974955463,0.0696776313],[35.6974960955,0.0613094308],[35.6891839442,0.0613089134],[35.6891844236,0.0529407825],[35.6974965728,0.0529412302],[35.6974973191,0.036204828],[35.7058095365,0.0362051328],[35.7058100023,0.0194685915],[35.7224346434,0.0194689171],[35.7224348158,-0.0056363164],[35.7390597358,-0.0056364113],[35.7390592848,-0.0307420646],[35.7473718485,-0.0307423201],[35.7473715614,-0.0391109408],[35.7556841957,-0.039111265],[35.7556838387,-0.047479955],[35.7723093155,-0.0474807392],[35.7723088937,-0.0558495674],[35.7806217359,-0.0558500268],[35.7806206878,-0.0725878208],[35.7857415092,-0.0725881879],[35.7872052704,-0.0725882927],[35.7889336001,-0.0725884164],[35.7889313985,-0.0989844822],[35.7889268485,-0.1383977682],[35.7889242853,-0.1562780702],[35.7972372915,-0.1562793492],[35.7972267477,-0.2148453161],[35.7928359158,-0.214844388],[35.7889209425,-0.214860825],[35.7889119293,-0.2232297878],[35.7972249657,-0.2232316148],[35.7972212058,-0.2399696802],[35.8055343198,-0.2399716391],[35.8055323427,-0.2483407399],[35.8138455314,-0.2483427619],[35.8138434917,-0.2567119308],[35.8304774726,-0.2567160966],[35.8304732172,-0.273437664],[35.8387866552,-0.273439873],[35.8387844304,-0.2818092783],[35.8470979421,-0.281811548],[35.8470956553,-0.2901810197],[35.85540924,-0.2901833515],[35.8554068934,-0.2985528904],[35.863720551,-0.2985552832],[35.8637156704,-0.3152944936],[35.8886570795,-0.3153020347],[35.8886595334,-0.3069322298],[35.8803456713,-0.3069297884],[35.8803480656,-0.2985600499],[35.8969758441,-0.2985647905],[35.8969734616,-0.3069346628],[35.9052874574,-0.3069370903],[35.9052850165,-0.3153070287],[35.9135990837,-0.3153095157],[35.9135940176,-0.332049524],[35.9219081638,-0.3320521351],[35.92190554,-0.3404222049],[35.9135913867,-0.3404195261],[35.9135886904,-0.3487895298],[35.9219028509,-0.3487922744],[35.9218972768,-0.3655324122],[35.9302115176,-0.3655352789],[35.930205697,-0.3822755482],[35.9385200195,-0.38227854],[35.9385170201,-0.390648739],[35.9468314139,-0.3906517871],[35.9468252369,-0.407392316],[35.9551397122,-0.4073954861],[35.9551365352,-0.4157658158],[35.9564826046,-0.4157663388],[35.9634510847,-0.4157690424],[35.9634413964,-0.4403776502],[35.9634411937,-0.4408802242],[35.9637116004,-0.4408803353],[35.9717558337,-0.4408836363],[35.9717524169,-0.4492540949],[35.9800671306,-0.4492575623],[35.980061877,-0.4618658001],[35.9800491325,-0.4911101732],[35.9883639597,-0.4911139532],[35.9883563324,-0.5078551246],[35.9939150978,-0.5078577319],[35.9966712454,-0.5078590237],[35.9966678368,-0.5151847119],[35.9966673466,-0.5162296728],[35.9970604935,-0.5162298599],[36.0049823341,-0.5162336243],[36.0049783816,-0.5246043373],[36.0132934436,-0.5246083417],[36.0132853721,-0.5413498965],[36.0216005199,-0.5413540173],[36.0216045751,-0.5329831763],[36.0299197757,-0.5329872222],[36.0299157299,-0.5413581267],[36.0382310048,-0.5413622246],[36.0382227482,-0.5581041587],[36.0465381081,-0.5581083725],[36.0465338978,-0.5664794018],[36.0548493322,-0.5664836659],[36.0548450703,-0.5748547589],[36.0627156784,-0.5748588433],[36.0631605793,-0.574859073],[36.0631600554,-0.5758827772],[36.063151895,-0.5916013848],[36.0680737572,-0.5916040063],[36.0714674899,-0.591605812],[36.0714629417,-0.6002112003],[36.0714540327,-0.6167194632],[36.0797697202,-0.6167397907],[36.0797651317,-0.6250953455],[36.088072516,-0.6250999932],[36.0880809019,-0.6250999969],[36.0880715397,-0.6418583071],[36.0880570548,-0.6669566993],[36.0934135605,-0.6669598892],[36.0932544699,-0.6684343778],[36.0993731244,-0.6783634416],[36.0997473175,-0.6846315493],[36.1072068349,-0.6959902371],[36.1129767247,-0.6999936631],[36.1129852034,-0.6999995461],[36.1129849135,-0.700473008],[36.1129797652,-0.708829129],[36.121287408,-0.7088343401],[36.1212930601,-0.713452806],[36.1212845411,-0.7134583441],[36.1196423157,-0.7145261123],[36.1202815259,-0.7198428127],[36.1212883536,-0.7209783815],[36.1212854438,-0.7255928209],[36.1212801174,-0.7339643732],[36.1212747398,-0.7423206835],[36.1295824723,-0.7423261241],[36.1295910194,-0.7423261297],[36.1295910095,-0.7423413723],[36.1295632458,-0.7841843518],[36.1378796665,-0.7841900894],[36.1378564171,-0.817676905],[36.1461729659,-0.8176828703],[36.1461670191,-0.8260546348],[36.1522711325,-0.8260590453],[36.1544836457,-0.8260606419],[36.1544895753,-0.8176888165],[36.1627975692,-0.8176947402],[36.1628062442,-0.8176947463],[36.1628062337,-0.8177096984],[36.1627883267,-0.8428104033],[36.1665171865,-0.8428131379],[36.1710964017,-0.8428164902],[36.1711051091,-0.8428164966],[36.1711050984,-0.8428313521],[36.1710867034,-0.8679323307],[36.17939486,-0.8679385815],[36.1794035998,-0.867938589],[36.1794035888,-0.867953347],[36.1793975102,-0.876113557],[36.1793910649,-0.8846825958],[36.1841275163,-0.8846862206],[36.1876992867,-0.8846889494],[36.187708058,-0.8846889561],[36.1877017087,-0.8930756823],[36.1876757709,-0.9265492694],[36.1847630486,-0.92654694],[36.1793586817,-0.9265426091],[36.1793520262,-0.9349146106],[36.1741806018,-0.9349104218],[36.1544010636,-0.9348943302],[36.1543874523,-0.9516379677],[36.1460705454,-0.9516310462],[36.1460774012,-0.9432592891],[36.1377605748,-0.9432524076],[36.1377327073,-0.9767391928],[36.1294158619,-0.9767320464],[36.1294087224,-0.9851036803],[36.1210919165,-0.9850964527],[36.1210990766,-0.9767248812],[36.1044656904,-0.9767104868],[36.1044799077,-0.9599675864],[36.0992761748,-0.9599631445],[36.0878468498,-0.9599533586],[36.0878539068,-0.9515820331],[36.0795374897,-0.9515749497],[36.0795514579,-0.9348324212],[36.0629188892,-0.9348184461],[36.0629462356,-0.9013338834],[36.0546301228,-0.9013271176],[36.0546368224,-0.8929560393],[36.0380048204,-0.8929425759],[36.0380114948,-0.8845716234],[36.0213797826,-0.8845582122],[36.0213864311,-0.8761873854],[36.0047550089,-0.876174027],[36.0047616298,-0.8678033283],[35.9881304986,-0.8677900241],[35.9881370932,-0.8594194524],[35.9715062531,-0.859406204],[35.9715193228,-0.8426653174],[35.9632040357,-0.8426587955],[35.9631975157,-0.8510291742],[35.9465670978,-0.8510159468],[35.9465658121,-0.842645693],[35.9382585594,-0.8426391229],[35.9382650563,-0.8342838242],[35.9382650687,-0.8342689402],[35.938257258,-0.834268934],[35.9299500573,-0.8342624125],[35.9299565182,-0.8258922939],[35.9216415894,-0.8258858143],[35.9216479909,-0.8175307098],[35.9216543498,-0.8091457082],[35.9216466048,-0.8091457023],[35.9133318071,-0.809139336],[35.9050247571,-0.8091329595],[35.9050247467,-0.8091479406],[35.9050183754,-0.8175028813],[35.9133331561,-0.8175093298],[35.9133267259,-0.8258793172],[35.9050119289,-0.8258728027],[35.9050054158,-0.8342427237],[35.8966906661,-0.8342361255],[35.8966840697,-0.8426059799],[35.880054733,-0.8425925968],[35.8800613655,-0.8342228762],[35.8883759832,-0.8342295097],[35.8883825303,-0.8258597213],[35.8717533968,-0.82584657],[35.871746814,-0.8342162252],[35.8634323298,-0.8342095555],[35.863425662,-0.8425791433],[35.8551112259,-0.8425723899],[35.8551179103,-0.8342028692],[35.8384892746,-0.8341894445],[35.838482555,-0.8425588305],[35.8301683196,-0.8425520227],[35.8301817268,-0.8258133865],[35.8218675947,-0.8258066974],[35.8218742146,-0.8174374469],[35.8135601663,-0.8174308084],[35.8135468243,-0.8341691739],[35.7969188623,-0.834155572],[35.796925601,-0.8257865255],[35.7886117397,-0.8257797667],[35.7886184286,-0.8174107883],[35.7719909435,-0.8173973567],[35.7719774282,-0.8341350371],[35.7802911713,-0.8341418988],[35.7802774182,-0.8508797162],[35.7636499298,-0.8508656975],[35.7636568765,-0.8424969269],[35.755343253,-0.8424899608],[35.7553501486,-0.834121259],[35.7470366116,-0.8341143435],[35.7470502308,-0.8173770784],[35.7387367984,-0.8173702835],[35.7387435215,-0.8090017204],[35.7221168977,-0.8089882194],[35.7221033136,-0.8257250678],[35.7054768985,-0.8257112186],[35.7054837598,-0.8173429359],[35.7137969153,-0.817349798],[35.7138036896,-0.8089814447],[35.7054905512,-0.8089746519],[35.7054972727,-0.8006063675],[35.697184222,-0.8005996281],[35.6971774836,-0.8089678421],[35.6888644853,-0.8089610152],[35.6888712405,-0.8005928727],[35.6805583293,-0.8005860986],[35.6805378016,-0.825690315],[35.6722249096,-0.8256833111],[35.6722179087,-0.8340513114],[35.6639050709,-0.8340442197],[35.6639190367,-0.817308361],[35.6556063033,-0.8173013944],[35.6555993386,-0.8256692536],[35.6472866599,-0.8256621973],[35.647293641,-0.8172944106],[35.6389810507,-0.8172874104],[35.6389598392,-0.8423905524],[35.6306472671,-0.8423833185],[35.6306327338,-0.8591186019],[35.6223136066,-0.8591112002],[35.6223209141,-0.850758446],[35.6140150591,-0.85075111],[35.614015072,-0.8507362949],[35.5973903823,-0.8507363723],[35.597369066,-0.8674710055],[35.5890568317,-0.8674634642],[35.5890642963,-0.8590962186],[35.5807521533,-0.859088732],[35.5807669009,-0.8423543835],[35.539207451,-0.8423174129],[35.5392075523,-0.8422026953],[35.5403603102,-0.8407425654],[35.5432150703,-0.8283086216],[35.5392213525,-0.8264276426],[35.5392220833,-0.8255837964],[35.547533792,-0.8255910794],[35.5475409808,-0.8172241972],[35.5558527464,-0.8172313882],[35.5558668694,-0.8004974743],[35.5641786733,-0.8005045012],[35.5641856089,-0.7921374706],[35.5558738227,-0.7921305182],[35.555880702,-0.7837635598],[35.5475690035,-0.7837566633],[35.5475621077,-0.7921235471],[35.5309388994,-0.7921095568],[35.530931897,-0.8004762924],[35.5143089506,-0.8004620867],[35.5143159855,-0.7920954995],[35.5060046394,-0.7920884458],[35.5059975869,-0.8004549585],[35.4976862991,-0.8004478143],[35.4977003624,-0.783714938],[35.5060116178,-0.7837219328],[35.5060185221,-0.7753554193],[35.4810850278,-0.7753346081],[35.4810780745,-0.783700896],[35.4659171457,-0.7836880315],[35.4649692245,-0.7795874154],[35.4644593532,-0.7797843989],[35.4644630712,-0.7753206506],[35.4727740121,-0.775327637],[35.4727937407,-0.7585952136],[35.4810987105,-0.7586020283],[35.481105452,-0.7502205388],[35.4811120945,-0.7418694479],[35.4728011424,-0.7418627787],[35.4727944721,-0.7502289947],[35.4561727604,-0.7502154574],[35.4561659845,-0.7585815222],[35.4644768182,-0.7585883738],[35.4644699822,-0.766954512],[35.4561591325,-0.7669475847],[35.4561522054,-0.7753136486]],[[35.8886545595,-0.3236718394],[35.8969685018,-0.323674407],[35.8969710151,-0.315304535],[35.8886570795,-0.3153020347],[35.8886545595,-0.3236718394]],[[35.572497469,-0.7921444073],[35.5725043152,-0.7837773031],[35.5641924717,-0.7837704397],[35.5641856089,-0.7921374706],[35.572497469,-0.7921444073]],[[35.6770420579,-0.1059375976],[35.680864407,-0.1363588935],[35.682681398,-0.150822574],[35.6933699115,-0.1519352498],[35.6976369175,-0.1630293433],[35.7019417503,-0.1729835385],[35.7086403309,-0.188473386],[35.7262461591,-0.2064789779],[35.7276977442,-0.2079635492],[35.7430458858,-0.2055189116],[35.7577578146,-0.1984568337],[35.7676893446,-0.1869836842],[35.7716952975,-0.1730130542],[35.7717002936,-0.172995628],[35.7722961371,-0.1709175797],[35.7723033093,-0.1708925689],[35.7731009885,-0.1681105769],[35.7723050918,-0.1598686457],[35.7722979353,-0.159794548],[35.7707828973,-0.1441074421],[35.7693119842,-0.1311686305],[35.7673715995,-0.1141023552],[35.7647798826,-0.106061744],[35.7591010381,-0.0884442849],[35.755383965,-0.0813242993],[35.7551911395,-0.0809546751],[35.7507681615,-0.0724764046],[35.7320426408,-0.0670601206],[35.7058090587,-0.0567592722],[35.6975033144,-0.0554843757],[35.6891912027,-0.054208512],[35.6854713277,-0.0536375338],[35.6808790022,-0.0558162153],[35.6749123092,-0.0586469028],[35.6718975437,-0.0641940631],[35.6666065306,-0.0739293307],[35.6770420579,-0.1059375976]],[[35.6612300703,-0.1776185031],[35.6536640178,-0.1791893379],[35.6535812934,-0.188416398],[35.6540955508,-0.1980786822],[35.6541706297,-0.1994894744],[35.65591705,-0.2031340042],[35.662260363,-0.2163718669],[35.6698343884,-0.2141131064],[35.671250237,-0.2095106936],[35.6694670075,-0.2032748892],[35.6668811991,-0.1980812798],[35.6649715939,-0.1942458683],[35.6655532697,-0.1897304106],[35.6657136206,-0.1884855983],[35.668827414,-0.1897310462],[35.6739180537,-0.1917671972],[35.6783054264,-0.187639419],[35.6821726389,-0.1897424522],[35.6840567694,-0.1980847515],[35.6841535806,-0.1985134075],[35.6893601836,-0.2057031738],[35.6936760931,-0.1980866894],[35.6947018879,-0.1962764008],[35.6936725936,-0.1831209452],[35.6909995967,-0.1745775469],[35.6857222383,-0.1756916447],[35.681855185,-0.1740595257],[35.676368022,-0.1731003722],[35.6725460631,-0.1764214664],[35.6708337567,-0.177909367],[35.6612300703,-0.1776185031]],[[35.5414125725,-0.0892658269],[35.541416322,-0.0892859676],[35.5429739271,-0.0976530075],[35.5436045761,-0.1010408052],[35.5568474155,-0.1045745722],[35.5625163852,-0.1099150558],[35.5600994695,-0.1248857562],[35.5637049882,-0.1309091767],[35.5695600861,-0.1415461579],[35.5740048026,-0.1563325888],[35.583171718,-0.1552387384],[35.5873696086,-0.1458057419],[35.5828855002,-0.1358632327],[35.5801694893,-0.1321559318],[35.5802315907,-0.1243148916],[35.591792744,-0.1114729364],[35.59275682,-0.1054862695],[35.5834106841,-0.1015105738],[35.5816706617,-0.0908932057],[35.5869781852,-0.0849256504],[35.5879423795,-0.0796271105],[35.5843046471,-0.076609797],[35.575841522,-0.0774767286],[35.5736380084,-0.0668603579],[35.5704243905,-0.0682245201],[35.5662356734,-0.0764987516],[35.5636399006,-0.085937912],[35.5592839818,-0.0863715597],[35.5564006818,-0.0764447266],[35.5511168814,-0.0725529598],[35.5507114739,-0.0722543592],[35.5408044153,-0.0701905648],[35.5376392899,-0.0763259218],[35.5395820459,-0.0829882294],[35.5414125725,-0.0892658269]],[[35.5266269356,-0.1394850357],[35.5417325906,-0.1586718555],[35.5490026334,-0.1644805316],[35.5572560065,-0.1622295153],[35.5589123091,-0.1560064749],[35.5525706048,-0.1488199424],[35.5460555582,-0.1349520645],[35.5445637647,-0.1224876103],[35.5395785341,-0.1165622685],[35.5361823123,-0.1125256313],[35.5288495905,-0.1136345715],[35.5233818155,-0.1157178727],[35.5218863604,-0.1260417537],[35.5226561473,-0.1343787595],[35.5266269356,-0.1394850357]],[[35.4808543338,0.1114933346],[35.4812791734,0.1029858827],[35.4929971119,0.0984833638],[35.4983646877,0.1075478151],[35.4983029458,0.1220331473],[35.4932291301,0.1282276504],[35.4901598175,0.1319748617],[35.4802845439,0.1229009558],[35.4808543338,0.1114933346]],[[35.6504142629,-0.1058327523],[35.6476272547,-0.1049148479],[35.6449736338,-0.1040408777],[35.6384530968,-0.1126820667],[35.6363077652,-0.1230445969],[35.6394078919,-0.1345927877],[35.6528442827,-0.1348762805],[35.6583273222,-0.1157966835],[35.6572184693,-0.1144004308],[35.6559382255,-0.1127883707],[35.6505723572,-0.1060318185],[35.6504142629,-0.1058327523]],[[35.6002829842,-0.1871609942],[35.6074148471,-0.1825940697],[35.6225313511,-0.1803852586],[35.6296627128,-0.1765063272],[35.6326787917,-0.171683899],[35.6252300092,-0.160333588],[35.6210916424,-0.1621518951],[35.6175740511,-0.1720457283],[35.6086280913,-0.1745334665],[35.5946845431,-0.1730641976],[35.5840952635,-0.1803806678],[35.5823992263,-0.1912034395],[35.5875783234,-0.2006922758],[35.6002829842,-0.1871609942]],[[35.5122159891,0.2435606959],[35.5175536671,0.2607743244],[35.5030441426,0.2842809857],[35.4985563837,0.2806495037],[35.5022484037,0.2589295301],[35.5122159891,0.2435606959]],[[35.5709717242,0.190180641],[35.5711684969,0.1430091672],[35.5765868444,0.1384934691],[35.5855929669,0.1385123386],[35.5928152794,0.1330948822],[35.5954898136,0.1394385038],[35.5791076622,0.1829547816],[35.5709717242,0.190180641]],[[35.9092766243,-0.6158054642],[35.9058077908,-0.6194692868],[35.9051443561,-0.6189897708],[35.8826194835,-0.6027094602],[35.8780526531,-0.6008319293],[35.8743288328,-0.6081912096],[35.8766964416,-0.6245808491],[35.8818201081,-0.6333504363],[35.8821106655,-0.6338477537],[35.8887420057,-0.6341195671],[35.8906424644,-0.6333557778],[35.8960907557,-0.6311661083],[35.896171752,-0.6333591164],[35.8962784008,-0.636246838],[35.8973565161,-0.6429385223],[35.9014393956,-0.6471173933],[35.9069862783,-0.6411594383],[35.9140269684,-0.6472001323],[35.9181351422,-0.6488430235],[35.9236450573,-0.6461093947],[35.9346183224,-0.6482593188],[35.9341213428,-0.6333975341],[35.9341401716,-0.6250117261],[35.9341727683,-0.621269065],[35.9299010625,-0.6127067154],[35.9224821477,-0.5985876464],[35.9166164921,-0.5893212377],[35.9090961737,-0.5855820944],[35.8997161935,-0.5848253685],[35.8962267998,-0.5914962096],[35.9092766243,-0.6158054642]],[[35.8469938085,-0.5939464135],[35.8426678315,-0.5916067394],[35.8311378615,-0.6012225077],[35.8265927619,-0.5970356191],[35.8214882469,-0.6053110972],[35.8135829958,-0.6193319791],[35.8107652369,-0.6266894773],[35.8120586859,-0.6354632791],[35.8178132683,-0.6322677655],[35.8261902738,-0.6161814189],[35.8293443035,-0.6215113816],[35.8281148321,-0.6314207711],[35.8365268142,-0.6377037434],[35.8386263782,-0.6399473193],[35.8417325442,-0.6432665532],[35.8414168476,-0.6531838845],[35.8427021272,-0.6624198641],[35.8470271347,-0.6654481336],[35.8557596274,-0.662275888],[35.856559557,-0.6491336058],[35.8496796708,-0.6333308532],[35.8451779281,-0.6176861994],[35.8455139594,-0.6063921924],[35.8469938085,-0.5939464135]],[[35.8054414591,-0.4995208378],[35.8043662324,-0.4995578203],[35.7943575683,-0.5186446911],[35.7836769089,-0.535640186],[35.7778171832,-0.5499026655],[35.7780255595,-0.5533617584],[35.7832644766,-0.5552380298],[35.7907053527,-0.5426033505],[35.7965123497,-0.5334121571],[35.8041746893,-0.5207768204],[35.8058932021,-0.516152112],[35.8069962639,-0.5131836122],[35.8109560488,-0.5053713485],[35.8098665073,-0.499368633],[35.8054414591,-0.4995208378]],[[35.6114282591,-0.3246698794],[35.6148241946,-0.3288475714],[35.620383295,-0.3205808428],[35.6293734664,-0.3132501052],[35.6387700705,-0.3119308992],[35.644144085,-0.2997434437],[35.6411908501,-0.2969594379],[35.6350084989,-0.2969152966],[35.6306315932,-0.3008069551],[35.6228349947,-0.3030653007],[35.6156715856,-0.3099403725],[35.6114282591,-0.3246698794]],[[35.6351968453,-0.353878094],[35.6353658499,-0.3596456684],[35.6388013712,-0.3601291842],[35.6489751176,-0.3479705497],[35.6559178947,-0.3394840852],[35.6580338828,-0.3321099904],[35.655531732,-0.3309459483],[35.6500404857,-0.3306831689],[35.6471304014,-0.323978253],[35.6383179516,-0.3366057688],[35.6315920705,-0.3467034735],[35.6290178742,-0.3529190666],[35.6351968453,-0.353878094]],[[35.5947721146,-0.371380881],[35.5986141318,-0.3767078756],[35.6036225366,-0.3792805562],[35.605308323,-0.3691369758],[35.6013929394,-0.3469779949],[35.5966254995,-0.3427934291],[35.5924350445,-0.3501522116],[35.5883071763,-0.3519696211],[35.5853025206,-0.3551795862],[35.5832143795,-0.3583971376],[35.5886734826,-0.3616571026],[35.5913570487,-0.3690502261],[35.5947721146,-0.371380881]],[[35.9512361065,-0.6580552304],[35.9543661833,-0.6661574998],[35.9550038192,-0.6660329161],[35.9623944405,-0.6645888893],[35.967019422,-0.659546677],[35.9707393176,-0.6528843195],[35.9733410919,-0.6441311098],[35.9633373825,-0.6347671205],[35.9626738407,-0.6341460155],[35.9618268928,-0.6334139738],[35.9610311832,-0.6327262188],[35.9555922346,-0.6324800325],[35.9550236314,-0.6329581498],[35.9525928432,-0.6350021052],[35.95533093,-0.6458673895],[35.9565822461,-0.6493256718],[35.9512361065,-0.6580552304]]]}},{"type":"Feature","properties":{"country":"Kenya","country_code":"KEN","species_name":"Eucalyptus_nitens","genus":"Eucalyptus","species":"nitens","suitability_name":"Very suitable","suitability_rank":1,"source_layer":"KCFP_SSMT_Kenya","tz":null,"soil_description":null},"geometry":{"type":"Polygon","coordinates":[[[35.4149232316,-0.064194395],[35.4149219129,-0.080925797],[35.4066122452,-0.0809250558],[35.4066114692,-0.0892906796],[35.3905433489,-0.0892890929],[35.3859677984,-0.0770259406],[35.371165606,-0.0681824676],[35.3567569095,-0.0679612694],[35.3567571846,-0.064190251],[35.3899944665,-0.0641926272],[35.3899938409,-0.0725580982],[35.3983033544,-0.0725587658],[35.3983039786,-0.0641932187],[35.4149232316,-0.064194395]]]}},{"type":"Feature","properties":{"country":"Kenya","country_code":"KEN","species_name":"Eucalyptus_nitens","genus":"Eucalyptus","species":"nitens","suitability_name":"Very suitable","suitability_rank":1,"source_layer":"KCFP_SSMT_Kenya","tz":null,"soil_description":null},"geometry":{"type":"Polygon","coordinates":[[[35.4232350288,-0.0180407392],[35.4232350981,-0.0140003201],[35.4280151051,-0.0140003936],[35.4241198839,-0.0177048121],[35.4232350288,-0.0180407392]]]}},{"type":"Feature","properties":{"country":"Kenya","country_code":"KEN","species_name":"Eucalyptus_nitens","genus":"Eucalyptus","species":"nitens","suitability_name":"Very suitable","suitability_rank":1,"source_layer":"KCFP_SSMT_Kenya","tz":null,"soil_description":null},"geometry":{"type":"Polygon","coordinates":[[[35.4315449553,-0.0106434238],[35.4315449993,-0.0056345935],[35.4368116498,-0.0056346269],[35.4315449553,-0.0106434238]]]}},{"type":"Feature","properties":{"country":"Kenya","country_code":"KEN","species_name":"Eucalyptus_nitens","genus":"Eucalyptus","species":"nitens","suitability_name":"Very suitable","suitability_rank":1,"source_layer":"KCFP_SSMT_Kenya","tz":null,"soil_description":null},"geometry":{"type":"Polygon","coordinates":[[[35.422781908,0.9146000125],[35.4227802533,0.9162676862],[35.4248497269,0.9173534651],[35.428933527,0.9146061865],[35.422781908,0.9146000125]]]}},{"type":"Feature","properties":{"country":"Kenya","country_code":"KEN","species_name":"Eucalyptus_nitens","genus":"Eucalyptus","species":"nitens","suitability_name":"Very suitable","suitability_rank":1,"source_layer":"KCFP_SSMT_Kenya","tz":null,"soil_description":null},"geometry":{"type":"Polygon","coordinates":[[[35.3828132899,0.9563865909],[35.3811858491,0.956384862],[35.3811847928,0.957391606],[35.3828132899,0.9563865909]]]}},{"type":"Feature","properties":{"country":"Kenya","country_code":"KEN","species_name":"Eucalyptus_nitens","genus":"Eucalyptus","species":"nitens","suitability_name":"Very suitable","suitability_rank":1,"source_layer":"KCFP_SSMT_Kenya","tz":null,"soil_description":null},"geometry":{"type":"Polygon","coordinates":[[[34.7664074263,0.9723945344],[34.766438321,0.9473170386],[34.7581340091,0.9473067979],[34.7581740237,0.9138704913],[34.7415658252,0.9138506753],[34.741575643,0.9054917787],[34.7249678435,0.9054720678],[34.7249776069,0.8971133526],[34.6668533033,0.8970444074],[34.66687282,0.8803282607],[34.6419638892,0.8802989859],[34.6419541222,0.8886567815],[34.6253485928,0.8886369863],[34.6253386945,0.8969945952],[34.617036051,0.8969845762],[34.6170459662,0.8886270597],[34.6087434342,0.8886171163],[34.608753275,0.8802596929],[34.6004508536,0.8802498245],[34.6004606214,0.8718924952],[34.5589500074,0.8718433427],[34.5589401482,0.8802002008],[34.5506382886,0.8801902206],[34.5506481653,0.8718334573],[34.5257432078,0.8718036911],[34.5257332763,0.880160169],[34.5091304083,0.8801400422],[34.5091403764,0.8717837554],[34.4925379254,0.8717637464],[34.4925478354,0.8634076509],[34.4842467703,0.8633977152],[34.4842268203,0.8801097134],[34.4676249062,0.8800894017],[34.4676147508,0.8884452072],[34.4593139192,0.888434927],[34.4593036492,0.8967906353],[34.4676044994,0.8968010122],[34.4675731418,0.9218900368],[34.4675697155,0.926272898],[34.4695580659,0.9302268118],[34.4758635562,0.9302349713],[34.4758436322,0.9457177169],[34.4791154717,0.9636629769],[34.4841213308,0.963669675],[34.4841141248,0.9691146308],[34.4924184038,0.9668789513],[34.4937636315,0.9665167847],[34.6148888277,0.9719823785],[34.6579072068,0.9919498916],[34.6999018217,1.0284022192],[34.7026902398,1.0308227104],[34.7164903345,1.042802036],[34.7196973722,1.0455859737],[34.7211170806,1.0475650935],[34.7268583971,1.0555687509],[34.7196530909,1.0637332319],[34.7061581591,1.0728031631],[34.7024458213,1.1209820318],[34.7068892948,1.1391304981],[34.6664563585,1.1869794116],[34.6600596411,1.1945486135],[34.6742473969,1.1979471188],[34.6747431783,1.197947907],[34.674742994,1.1980658321],[34.7093746328,1.2063613547],[34.7094035799,1.2063614016],[34.7111907343,1.2054595282],[34.7162519622,1.2060302808],[34.716264477,1.1980136761],[34.7245690098,1.1980267544],[34.7245819456,1.1896680601],[34.7328865451,1.1896810212],[34.7329120944,1.1729634467],[34.757826284,1.173001638],[34.7578136288,1.1813606987],[34.7661185634,1.1813734702],[34.7661311949,1.1730143201],[34.7744361937,1.1730269765],[34.774448712,1.1646677355],[34.7827537769,1.1646802763],[34.7827907192,1.1396022793],[34.7744857265,1.1395900086],[34.7745219349,1.1145122762],[34.7662171024,1.1145002503],[34.7662872373,1.0643453106],[34.7828967186,1.0643682555],[34.7829415052,1.0309308964],[34.7746368064,1.0309197953],[34.7746478019,1.0225605441],[34.7663432151,1.0225495115],[34.7663541414,1.01419035],[34.7554657463,1.0141759705],[34.7497452796,1.0141684021],[34.7497669472,0.9974504393],[34.7663757249,0.9974720254],[34.7663969495,0.9807536986],[34.7723445093,0.9807612791],[34.7747014317,0.9807642802],[34.774711889,0.9724050258],[34.7741210283,0.97240428],[34.7664074263,0.9723945344]]]}},{"type":"Feature","properties":{"country":"Kenya","country_code":"KEN","species_name":"Eucalyptus_nitens","genus":"Eucalyptus","species":"nitens","suitability_name":"Very suitable","suitability_rank":1,"source_layer":"KCFP_SSMT_Kenya","tz":null,"soil_description":null},"geometry":{"type":"Polygon","coordinates":[[[35.3146859982,0.9730430507],[35.3146676623,0.9897725306],[35.3229777006,0.9897818272],[35.3229959944,0.9730521901],[35.3146859982,0.9730430507]]]}},{"type":"Feature","properties":{"country":"Kenya","country_code":"KEN","species_name":"Eucalyptus_nitens","genus":"Eucalyptus","species":"nitens","suitability_name":"Very suitable","suitability_rank":1,"source_layer":"KCFP_SSMT_Kenya","tz":null,"soil_description":null},"geometry":{"type":"Polygon","coordinates":[[[35.663890822,-0.8507800759],[35.6638979818,-0.8424121476],[35.6722108373,-0.8424193113],[35.6722036961,-0.8507873099],[35.663890822,-0.8507800759]]]}},{"type":"Feature","properties":{"country":"Kenya","country_code":"KEN","species_name":"Eucalyptus_nitens","genus":"Eucalyptus","species":"nitens","suitability_name":"Very suitable","suitability_rank":1,"source_layer":"KCFP_SSMT_Kenya","tz":null,"soil_description":null},"geometry":{"type":"Polygon","coordinates":[[[35.5391170481,-0.8423173311],[35.539207451,-0.8423174129],[35.5392000256,-0.8506842192],[35.5325161526,-0.8506781722],[35.5391170481,-0.8423173311]]]}},{"type":"Feature","properties":{"country":"Kenya","country_code":"KEN","species_name":"Eucalyptus_nitens","genus":"Eucalyptus","species":"nitens","suitability_name":"Very suitable","suitability_rank":1,"source_layer":"KCFP_SSMT_Kenya","tz":null,"soil_description":null},"geometry":{"type":"Polygon","coordinates":[[[35.7792279031,-1.6957325749],[35.7773328609,-1.6961333875],[35.7761100247,-1.6961313363],[35.7714776677,-1.687190911],[35.777246793,-1.6769516549],[35.7713409012,-1.6677679956],[35.7626580367,-1.657383967],[35.7626766484,-1.6458963602],[35.7590559225,-1.6458904373],[35.7582126137,-1.6395781238],[35.7559909046,-1.63751674],[35.7626901247,-1.6375276482],[35.7627035322,-1.6291589353],[35.7469926191,-1.62913345],[35.7460738736,-1.6276392958],[35.7461114907,-1.6040262256],[35.7710593711,-1.6040660263],[35.771072469,-1.5956972412],[35.7770044436,-1.5957066109],[35.7927013438,-1.6098903419],[35.8029717222,-1.6208664823],[35.8125106037,-1.6310609165],[35.8125910508,-1.6311186033],[35.8209055659,-1.6370807728],[35.8209047132,-1.6376214888],[35.821661303,-1.6376226963],[35.8216777813,-1.6376345138],[35.8292054531,-1.6430324565],[35.8292128406,-1.6430377537],[35.8292081534,-1.646004015],[35.833201076,-1.646010405],[35.8332153886,-1.6460221857],[35.8375118789,-1.6495589366],[35.8375192956,-1.6495650414],[35.8375116637,-1.6543866419],[35.8458285091,-1.6543999751],[35.8458152426,-1.6627693683],[35.8541321899,-1.6627827337],[35.8541101523,-1.6766302795],[35.8498534488,-1.6719965442],[35.8466570949,-1.6719803636],[35.8457923871,-1.6724312122],[35.8322388819,-1.6794977109],[35.8291446523,-1.6811109373],[35.8172694255,-1.6873021483],[35.8083452415,-1.6865531575],[35.8041940252,-1.6858291281],[35.8042044347,-1.6794401184],[35.7958805556,-1.6794263933],[35.7792548021,-1.6793988727],[35.7792279031,-1.6957325749]]]}},{"type":"Feature","properties":{"country":"Kenya","country_code":"KEN","species_name":"Eucalyptus_nitens","genus":"Eucalyptus","species":"nitens","suitability_name":"Very suitable","suitability_rank":1,"source_layer":"KCFP_SSMT_Kenya","tz":null,"soil_description":null},"geometry":{"type":"Polygon","coordinates":[[[35.7637027221,-1.5873168322],[35.7544536459,-1.5873022324],[35.7544612084,-1.582449187],[35.7637027221,-1.5873168322]]]}},{"type":"Feature","properties":{"country":"Kenya","country_code":"KEN","species_name":"Eucalyptus_nitens","genus":"Eucalyptus","species":"nitens","suitability_name":"Very suitable","suitability_rank":1,"source_layer":"KCFP_SSMT_Kenya","tz":null,"soil_description":null},"geometry":{"type":"Polygon","coordinates":[[[35.708792984,-1.5788612601],[35.7074737191,-1.5761453847],[35.7045894371,-1.5683739724],[35.7045992144,-1.5621180671],[35.712914592,-1.5621311861],[35.7129275768,-1.5537628843],[35.7212429915,-1.5537759001],[35.7212433244,-1.5535596786],[35.7485485318,-1.5789242696],[35.7378351611,-1.578907365],[35.7378481864,-1.5705388549],[35.7295325669,-1.5705257652],[35.7295195086,-1.5788942055],[35.7212039264,-1.5788810126],[35.7212170178,-1.5705126432],[35.7129015375,-1.5704994871],[35.7128884131,-1.5788677864],[35.708792984,-1.5788612601]]]}},{"type":"Feature","properties":{"country":"Kenya","country_code":"KEN","species_name":"Eucalyptus_nitens","genus":"Eucalyptus","species":"nitens","suitability_name":"Very suitable","suitability_rank":1,"source_layer":"KCFP_SSMT_Kenya","tz":null,"soil_description":null},"geometry":{"type":"Polygon","coordinates":[[[35.7390501065,0.139738854],[35.7390505319,0.1366289544],[35.7307380142,0.1366278169],[35.7307372859,0.141908579],[35.7350924771,0.1397305871],[35.7390501065,0.139738854]]]}},{"type":"Feature","properties":{"country":"Kenya","country_code":"KEN","species_name":"Eucalyptus_nitens","genus":"Eucalyptus","species":"nitens","suitability_name":"Very suitable","suitability_rank":1,"source_layer":"KCFP_SSMT_Kenya","tz":null,"soil_description":null},"geometry":{"type":"Polygon","coordinates":[[[35.7533378548,0.1701055847],[35.7556707291,0.170105981],[35.7556709266,0.1689202637],[35.7533378548,0.1701055847]]]}},{"type":"Feature","properties":{"country":"Kenya","country_code":"KEN","species_name":"Eucalyptus_nitens","genus":"Eucalyptus","species":"nitens","suitability_name":"Very suitable","suitability_rank":1,"source_layer":"KCFP_SSMT_Kenya","tz":null,"soil_description":null},"geometry":{"type":"Polygon","coordinates":[[[35.7390442141,0.1773674156],[35.73904402,0.1784717072],[35.7473566234,0.1784731905],[35.7473575456,0.1731438761],[35.7390442141,0.1773674156]]]}},{"type":"Feature","properties":{"country":"Kenya","country_code":"KEN","species_name":"Eucalyptus_nitens","genus":"Eucalyptus","species":"nitens","suitability_name":"Very suitable","suitability_rank":1,"source_layer":"KCFP_SSMT_Kenya","tz":null,"soil_description":null},"geometry":{"type":"Polygon","coordinates":[[[35.7224176919,0.1858142702],[35.7204050277,0.1868367602],[35.7224175026,0.1868371396],[35.7224176919,0.1858142702]]]}},{"type":"Feature","properties":{"country":"Kenya","country_code":"KEN","species_name":"Eucalyptus_nitens","genus":"Eucalyptus","species":"nitens","suitability_name":"Very suitable","suitability_rank":1,"source_layer":"KCFP_SSMT_Kenya","tz":null,"soil_description":null},"geometry":{"type":"Polygon","coordinates":[[[35.9454500558,-1.7717398149],[35.9537603863,-1.7717535929],[35.9537603678,-1.7717648687],[35.9537682435,-1.7717648817],[35.9537545437,-1.7801238477],[35.9454362993,-1.7801099915],[35.9454500558,-1.7717398149]]]}},{"type":"Feature","properties":{"country":"Kenya","country_code":"KEN","species_name":"Eucalyptus_nitens","genus":"Eucalyptus","species":"nitens","suitability_name":"Very suitable","suitability_rank":1,"source_layer":"KCFP_SSMT_Kenya","tz":null,"soil_description":null},"geometry":{"type":"Polygon","coordinates":[[[35.9122599355,-1.72146477],[35.9122867624,-1.7047249282],[35.9206044165,-1.704738341],[35.9205776616,-1.7214783155],[35.9122599355,-1.72146477]]]}},{"type":"Feature","properties":{"country":"Kenya","country_code":"KEN","species_name":"Eucalyptus_nitens","genus":"Eucalyptus","species":"nitens","suitability_name":"Very suitable","suitability_rank":1,"source_layer":"KCFP_SSMT_Kenya","tz":null,"soil_description":null},"geometry":{"type":"Polygon","coordinates":[[[36.2877726385,-0.3991424387],[36.2794557222,-0.3991396713],[36.279457556,-0.39352599],[36.2855906221,-0.3948524545],[36.291029172,-0.4013488359],[36.2934497618,-0.4075171526],[36.287769864,-0.407515228],[36.2877726385,-0.3991424387]]]}},{"type":"Feature","properties":{"country":"Kenya","country_code":"KEN","species_name":"Eucalyptus_nitens","genus":"Eucalyptus","species":"nitens","suitability_name":"Very suitable","suitability_rank":1,"source_layer":"KCFP_SSMT_Kenya","tz":null,"soil_description":null},"geometry":{"type":"Polygon","coordinates":[[[36.3127209803,-0.4075236526],[36.3058670572,-0.4075213471],[36.3066794455,-0.391529335],[36.3124438783,-0.3857938221],[36.3190491198,-0.391146782],[36.3195904036,-0.3991529477],[36.3127237275,-0.3991506902],[36.3127209803,-0.4075236526]]]}},{"type":"Feature","properties":{"country":"Kenya","country_code":"KEN","species_name":"Eucalyptus_nitens","genus":"Eucalyptus","species":"nitens","suitability_name":"Very suitable","suitability_rank":1,"source_layer":"KCFP_SSMT_Kenya","tz":null,"soil_description":null},"geometry":{"type":"Polygon","coordinates":[[[36.2628314196,-0.3697810784],[36.262835185,-0.3572877574],[36.2628351891,-0.3572710319],[36.2628261299,-0.3572710291],[36.2545184873,-0.3572685321],[36.254520945,-0.348895975],[36.2476453251,-0.3488939512],[36.2462048215,-0.3471304862],[36.2462067165,-0.340521027],[36.2408045156,-0.3405194707],[36.2404731032,-0.3401137598],[36.2378904476,-0.3394585755],[36.2378947991,-0.3237737494],[36.2295783004,-0.3237714625],[36.229580546,-0.3153990816],[36.2212641138,-0.315396848],[36.2212663063,-0.3070245253],[36.2129499395,-0.3070223445],[36.2129520794,-0.298650082],[36.2212684398,-0.2986522025],[36.2212702426,-0.2913898814],[36.2212705152,-0.2902798804],[36.212954161,-0.2902778185],[36.2129581449,-0.2735332911],[36.2046418618,-0.2735313433],[36.2046474104,-0.2484147311],[36.1963312031,-0.2484129561],[36.1963329391,-0.2400408113],[36.1880167963,-0.240039091],[36.1880184778,-0.2316670061],[36.1797024006,-0.2316653409],[36.1796952892,-0.2232933143],[36.1796983596,-0.2065665698],[36.1713823867,-0.2065650807],[36.1713838389,-0.1981931485],[36.1643787369,-0.1981919417],[36.1630679303,-0.1981917164],[36.1630742238,-0.1569353552],[36.1630774072,-0.1312167389],[36.1547615873,-0.1312157874],[36.1547661803,-0.0809849165],[36.1630819859,-0.0809855037],[36.1630825382,-0.0726136311],[36.1547667334,-0.0726131045],[36.154767227,-0.0642412916],[36.1630830304,-0.0642417583],[36.1630838341,-0.0474980128],[36.1713996953,-0.0474983562],[36.1714000068,-0.0391264229],[36.1797159263,-0.0391267049],[36.1797164963,-0.0140107229],[36.1880324748,-0.0140108236],[36.1880325449,-0.0056387697],[36.1963485838,-0.0056388101],[36.1963485441,0.0111054169],[36.2046646418,0.0111054962],[36.2046645334,0.0194776709],[36.2212969072,0.0194779471],[36.221297015,0.0111056542],[36.2296132901,0.0111057338],[36.2296133387,0.0027333807],[36.2212970637,0.0027333614],[36.2212970535,-0.0056389315],[36.2296133285,-0.0056389714],[36.2296133145,-0.0080709015],[36.2270004593,-0.017991476],[36.2081463098,-0.0373972396],[36.2034917503,-0.0558539524],[36.2012887992,-0.0645888819],[36.2052935804,-0.0789134808],[36.2089422042,-0.0809887115],[36.2129779238,-0.0832841197],[36.2135013866,-0.0835818524],[36.2250301856,-0.0728063671],[36.2251047603,-0.0725996885],[36.2276078875,-0.0656624581],[36.2328525655,-0.0400859389],[36.2456699853,-0.0189157394],[36.2500242637,-0.0056390689],[36.2545625058,-0.0056390905],[36.2545625061,0.0057650273],[36.2545604988,0.0697136706],[36.2628770141,0.0697141584],[36.2628765021,0.0780867448],[36.2711930762,0.0780872895],[36.2711925079,0.0864599362],[36.2795091416,0.0864605366],[36.2795085163,0.0948332405],[36.2878252115,0.094833898],[36.2878245306,0.1032066609],[36.2920534183,0.103207023],[36.2961412845,0.1032073733],[36.2961389036,0.1283258324],[36.290421374,0.1283252239],[36.2891940516,0.1416963961],[36.2878295543,0.1439126146],[36.2878283882,0.1534619239],[36.2819505636,0.1534611723],[36.2795111368,0.1574231951],[36.2795105568,0.1618335951],[36.2961441099,0.1618358367],[36.2961451906,0.1534629847],[36.3044620528,0.1534453505],[36.3044630698,0.1450911333],[36.2961462171,0.1450714736],[36.2961471799,0.1367172814],[36.3044548136,0.1367182225],[36.3127716922,0.1367191617],[36.3127799838,0.1450921291],[36.3210969548,0.1450931228],[36.3210959408,0.1534661474],[36.3377300595,0.1534682397],[36.3377329129,0.1283488241],[36.3460500473,0.1283496949],[36.3460508837,0.1199765],[36.3543680719,0.1199773106],[36.354367239,0.128350563],[36.362684486,0.1283514284],[36.3626853162,0.1199781204],[36.3710026174,0.1199789259],[36.3710033901,0.1116055616],[36.3793207438,0.1116063094],[36.3793221157,0.0948594675],[36.3876395216,0.0948601002],[36.3876401213,0.0864866228],[36.3959575816,0.0864871986],[36.3959581241,0.0781136654],[36.4042756371,0.0781141847],[36.4042750955,0.0864877725],[36.4125926644,0.0864883456],[36.4125932043,0.0781147015],[36.4209108283,0.0781152165],[36.4209117395,0.0613678187],[36.4292294143,0.061368222],[36.4292301052,0.0446207131],[36.4375478315,0.0446210054],[36.4375483034,0.0278733876],[36.4458660835,0.0278735696],[36.4458662369,0.0194997055],[36.4541840698,0.0194998324],[36.4541841696,0.0111259138],[36.4625020562,0.0111259869],[36.4625021009,0.002752014],[36.4708200422,0.0027520318],[36.4708200321,-0.0056219944],[36.4791380271,-0.0056220315],[36.4791379644,-0.0139961126],[36.4874560131,-0.0139962016],[36.4874557281,-0.0307444704],[36.4957738303,-0.0307446672],[36.4957736085,-0.0391188566],[36.5124099754,-0.039119355],[36.5124097022,-0.0474936492],[36.520727965,-0.0474939503],[36.5207272626,-0.0642426466],[36.5262834792,-0.0642429179],[36.5262864834,-0.0642607752],[36.5289122678,-0.0798714366],[36.5290346374,-0.0801389061],[36.5294330205,-0.0810096705],[36.5361115493,-0.0956074792],[36.537843204,-0.0990568306],[36.5552347894,-0.1088747173],[36.5607788421,-0.1156971909],[36.570624376,-0.1148697803],[36.5706346216,-0.1148689188],[36.5706339232,-0.1228676984],[36.5789525669,-0.1228684591],[36.5789517869,-0.1312431735],[36.5872704856,-0.1312439832],[36.5872696571,-0.1396187484],[36.6122260675,-0.1396213156],[36.6122268875,-0.1312463956],[36.6134076432,-0.1312465092],[36.6182119851,-0.1338692934],[36.6204991188,-0.1351156871],[36.6239221701,-0.1396400774],[36.6288527873,-0.1461571333],[36.6302589325,-0.1480157194],[36.6309337975,-0.1489077305],[36.6295304398,-0.1510943837],[36.6273707013,-0.1633146409],[36.6253399079,-0.1647476532],[36.6217180084,-0.1673034068],[36.6251845198,-0.1773836587],[36.628952186,-0.1774855605],[36.6323157951,-0.1647484894],[36.6328670087,-0.1626611491],[36.6402460982,-0.1567025791],[36.6617629261,-0.1579862817],[36.6704469099,-0.1579005482],[36.6764188446,-0.1578415884],[36.686255778,-0.1607599262],[36.6859635035,-0.1664338412],[36.6975820172,-0.1729651281],[36.6979846178,-0.1677622414],[36.7003207601,-0.1731494026],[36.7014522023,-0.1757585346],[36.703721623,-0.1792483747],[36.705202382,-0.1815254451],[36.7095934145,-0.1882778995],[36.7157974417,-0.1857742902],[36.7203596307,-0.1864761001],[36.7251721878,-0.1872164263],[36.7399148213,-0.1766853459],[36.7443259831,-0.1731372864],[36.7462078755,-0.1731375118],[36.7440340401,-0.1774028932],[36.7464801682,-0.1864164019],[36.7536487837,-0.1882700418],[36.7536485763,-0.1898899249],[36.7559174039,-0.1898902217],[36.7521319003,-0.1949981562],[36.7617591298,-0.193893103],[36.7692492163,-0.1898919587],[36.7702881455,-0.1898920937],[36.7702871915,-0.1971939089],[36.7692470723,-0.2013296586],[36.7761167055,-0.2020151188],[36.7693747011,-0.2142538747],[36.7536333393,-0.2205916365],[36.7484585962,-0.2226750611],[36.7475156861,-0.2233920241],[36.7367140147,-0.2316052655],[36.7295441158,-0.2391858249],[36.7342931693,-0.2468267175],[36.7530849691,-0.2448628513],[36.761948926,-0.2468448083],[36.7647471882,-0.2474704943],[36.766891682,-0.2523337346],[36.7660014486,-0.2569153142],[36.7638897033,-0.2677830801],[36.7732759555,-0.2680746824],[36.7754222471,-0.2664666631],[36.7785190589,-0.2708751125],[36.7869045451,-0.2696589235],[36.7876919014,-0.2695447285],[36.79523705,-0.2616013809],[36.8031601154,-0.2546258862],[36.8127522935,-0.2569926059],[36.8240512114,-0.2652844457],[36.8248145324,-0.26584462],[36.8285167735,-0.2656814693],[36.8479569969,-0.2648247512],[36.8533598304,-0.2754743598],[36.8505381638,-0.2844616806],[36.8398971772,-0.2970972757],[36.8344751007,-0.3071673806],[36.8303570045,-0.314815557],[36.8355486067,-0.3240878906],[36.8368257638,-0.3238832018],[36.8564164027,-0.3207433871],[36.8808971795,-0.3155701216],[36.8826134902,-0.3155704745],[36.8867383316,-0.3167677944],[36.8867332984,-0.3407007369],[36.9033744799,-0.3407043985],[36.9033648663,-0.3825872096],[36.8950442147,-0.3825851587],[36.8950421553,-0.3909450705],[36.8950421503,-0.3909616746],[36.8950536485,-0.3909616775],[36.90336281,-0.3909637713],[36.9033607101,-0.3993403337],[36.8950515393,-0.3993381951],[36.8950378881,-0.4077147076],[36.9033585638,-0.4077168942],[36.9033541394,-0.4244700172],[36.8950334462,-0.4244677399],[36.8950311581,-0.4328442558],[36.8910473289,-0.4328431411],[36.8867104988,-0.4328419262],[36.8867081569,-0.4412183968],[36.8943619644,-0.4412205823],[36.8950288254,-0.4412207715],[36.895028351,-0.4429048253],[36.895026447,-0.4495972869],[36.8976765697,-0.4495980559],[36.911667935,-0.4496021006],[36.911652852,-0.4998617269],[36.9047515303,-0.4998595131],[36.9033320249,-0.4998590568],[36.9033296144,-0.5073996646],[36.9033284339,-0.511054783],[36.903318181,-0.5417418488],[36.8949973444,-0.5417389434],[36.8949884671,-0.56686848],[36.9033093387,-0.566871521],[36.9033063025,-0.575248077],[36.8949854189,-0.5752449928],[36.8949791883,-0.591998016],[36.9116210501,-0.5920043532],[36.9116178919,-0.6003809541],[36.9199389024,-0.6003841484],[36.9199357135,-0.6087607936],[36.9116146902,-0.6087575546],[36.9116081547,-0.6255107549],[36.8866452765,-0.6255006911],[36.8866384825,-0.6422536207],[36.8949594239,-0.6422570788],[36.8949524768,-0.6590100965],[36.8866315089,-0.6590065491],[36.8866279547,-0.6673830129],[36.9032699651,-0.6673901855],[36.9032627781,-0.6841432922],[36.9115838796,-0.6841469468],[36.9115802342,-0.6925235435],[36.9032591183,-0.692519845],[36.9032554139,-0.7008963976],[36.8949343296,-0.7008926386],[36.8949267563,-0.7176456529],[36.9032478714,-0.7176495017],[36.9032322528,-0.751155706],[36.8949110758,-0.7511516775],[36.8949070428,-0.7595281828],[36.9032282365,-0.7595322562],[36.9032159204,-0.7846619048],[36.8948946788,-0.7846576965],[36.8948904677,-0.7930342004],[36.903211725,-0.7930384536],[36.903207486,-0.801415002],[36.894886211,-0.8014107039],[36.894877566,-0.8181637098],[36.8782350812,-0.8181548828],[36.8782261868,-0.8349077055],[36.853262695,-0.8348940596],[36.8532581271,-0.843270334],[36.8449370374,-0.8432657049],[36.8449230052,-0.8683943866],[36.8282808534,-0.8683847953],[36.8282711963,-0.8851370634],[36.8199501535,-0.885132148],[36.819945237,-0.893508234],[36.8116242209,-0.8935032522],[36.811614211,-0.9102553322],[36.8032932034,-0.9102502368],[36.8032829688,-0.9270022205],[36.7949619683,-0.9269970135],[36.7949567623,-0.9353729576],[36.7866357899,-0.9353676819],[36.7866251948,-0.9521194744],[36.7783042297,-0.9521140858],[36.7782988428,-0.960489933],[36.7616570142,-0.9604789991],[36.7616515377,-0.9688547514],[36.7533306752,-0.9688492055],[36.7533195392,-0.985600612],[36.7449986833,-0.9855949493],[36.7449930224,-0.9939706042],[36.7366721936,-0.9939648732],[36.7366548625,-1.0190916893],[36.7283340164,-1.0190857918],[36.7283221786,-1.0358369029],[36.7200013384,-1.0358308864],[36.7199831534,-1.0609574049],[36.7283040607,-1.0609635683],[36.7282969382,-1.0706781028],[36.7282792255,-1.0944657807],[36.7199582292,-1.0944594226],[36.7199390257,-1.1195859306],[36.703297037,-1.1195728513],[36.7032904919,-1.1279482551],[36.6949695479,-1.1279416306],[36.6949629292,-1.1363169846],[36.6866420095,-1.136310286],[36.6866353187,-1.1446855911],[36.6783144242,-1.1446788188],[36.67830766,-1.1530540737],[36.6866285788,-1.1530608947],[36.6866217897,-1.1614361968],[36.6783008466,-1.1614293273],[36.6782870716,-1.1781798327],[36.6699661295,-1.1781728381],[36.6699591535,-1.1865345005],[36.6699591422,-1.1865480403],[36.6616488251,-1.1865409798],[36.6616382238,-1.1865409708],[36.6616240636,-1.2032777991],[36.6616096816,-1.2200415742],[36.6449677914,-1.2200269585],[36.6449822648,-1.2032768586],[36.6366614448,-1.2032696119],[36.6366686312,-1.1948946125],[36.6290179914,-1.1948879743],[36.6283478885,-1.1948873918],[36.6283450859,-1.1981479168],[36.6283406768,-1.2032623416],[36.6278337652,-1.2032618978],[36.6200199575,-1.2032550448],[36.6199979432,-1.2283797381],[36.6116771986,-1.2283722629],[36.6116697334,-1.2367471086],[36.6033593909,-1.2367395656],[36.5950387017,-1.2367186415],[36.5950433396,-1.219969081],[36.5950798908,-1.1781087636],[36.5784390623,-1.1780942502],[36.5784534399,-1.1613313263],[36.5784637199,-1.1613313352],[36.5784605457,-1.1529566497],[36.5784738554,-1.1371040177],[36.5784746028,-1.136207293],[36.5785121481,-1.1029944331],[36.5812448838,-1.1040173506],[36.5847931527,-1.1081782623],[36.5868355076,-1.0990812167],[36.5883859217,-1.0921751438],[36.6025247006,-1.0692428036],[36.6034891698,-1.0692295717],[36.6034906532,-1.0673159413],[36.6035010503,-1.0672886101],[36.6107701422,-1.0481801973],[36.6216001531,-1.0297334103],[36.6271498506,-1.0171923328],[36.627507623,-1.0070736217],[36.6299540726,-1.0023477062],[36.6271115771,-0.9718609733],[36.6237917528,-0.9603852742],[36.6210536936,-0.9509207824],[36.6112911249,-0.9373078713],[36.6035890571,-0.9316330053],[36.5971210336,-0.9268673921],[36.5952734233,-0.9254081613],[36.5888918013,-0.9184870344],[36.5869597143,-0.9163916136],[36.5811650436,-0.9101070967],[36.5791269153,-0.9078966839],[36.5755311228,-0.9039962956],[36.5657509737,-0.8947124735],[36.5541240631,-0.8881755572],[36.5498924196,-0.8752223514],[36.5518776093,-0.8299912993],[36.5487883729,-0.8165836634],[36.5572384388,-0.819644375],[36.5637463585,-0.8344612356],[36.5695396403,-0.8531940084],[36.5726160423,-0.8684506107],[36.5722780295,-0.8813736679],[36.573584723,-0.8894554124],[36.58417689,-0.8821466322],[36.5852529253,-0.8636854729],[36.5801975841,-0.8394144823],[36.5741280279,-0.8264455379],[36.5689196872,-0.8194927909],[36.56666548,-0.8153181822],[36.5724249455,-0.8112052847],[36.5797197243,-0.8149471913],[36.5891856995,-0.8337023606],[36.5965347532,-0.8307472862],[36.6029618942,-0.8289443234],[36.6049058205,-0.8162634675],[36.6072648966,-0.7809623123],[36.626500851,-0.7543101028],[36.6268528465,-0.7409242834],[36.629649332,-0.7074796032],[36.6297672934,-0.6952268931],[36.6238528414,-0.6894354466],[36.6207257076,-0.6840105839],[36.6203733211,-0.683399277],[36.6107618942,-0.6667258777],[36.6045148151,-0.6468340536],[36.6067073207,-0.631152898],[36.6155202608,-0.5912831694],[36.6229059702,-0.5564719923],[36.6140166124,-0.5254831315],[36.609616162,-0.5030696299],[36.6024005883,-0.4898681151],[36.5978623836,-0.4849907323],[36.5907969793,-0.4803258416],[36.5801757266,-0.4904199512],[36.5714183229,-0.4975204357],[36.5617514628,-0.5039154058],[36.5559536733,-0.512424726],[36.5483599052,-0.5160704733],[36.5185025892,-0.499026503],[36.5145042707,-0.4949912327],[36.5040009229,-0.4918778565],[36.5036785174,-0.4917822894],[36.4911816994,-0.4808555222],[36.4835085338,-0.467184696],[36.4777815679,-0.4578381753],[36.472436836,-0.4491155755],[36.476695995,-0.4329883269],[36.4767804642,-0.421679426],[36.4750927811,-0.4050452543],[36.4790682506,-0.3961604146],[36.4814456699,-0.390846994],[36.4820959834,-0.3893935628],[36.4829508022,-0.3740600041],[36.4851011272,-0.3575643768],[36.4881528144,-0.3481170919],[36.4927773708,-0.3439953401],[36.4957189012,-0.3457883602],[36.5023395497,-0.349824016],[36.5040457113,-0.3513030668],[36.5128037743,-0.3588953631],[36.5193758345,-0.3663150299],[36.527406861,-0.3642898786],[36.5272011934,-0.3503440235],[36.5265076116,-0.3489719742],[36.5133237298,-0.3228921051],[36.5052409288,-0.302988227],[36.4998376557,-0.2819881933],[36.4994728726,-0.280570496],[36.4961252191,-0.271695884],[36.4933914027,-0.2689912133],[36.4849013889,-0.2542356392],[36.4829980489,-0.2509224438],[36.4678625291,-0.1975136093],[36.4557699783,-0.1653583875],[36.4377226451,-0.1310944023],[36.4283233255,-0.103801353],[36.4244575277,-0.0719314405],[36.4211100567,-0.0490946694],[36.4203601453,-0.047508171],[36.4114903499,-0.0287437668],[36.4086669204,-0.0223869734],[36.4069907167,-0.0186131364],[36.404268338,-0.0153800558],[36.3535669278,0.0447896832],[36.3418773842,0.0384241119],[36.3311623353,0.0121275292],[36.3374773643,-0.0181856865],[36.3372233205,-0.0439452412],[36.3459809991,-0.0643057574],[36.3544863599,-0.0892789026],[36.3571569824,-0.1273739974],[36.3527811635,-0.1584962877],[36.3542257369,-0.173086501],[36.3543616465,-0.1744592789],[36.3551131002,-0.1820497361],[36.3609453003,-0.1968625254],[36.3569757301,-0.2332934958],[36.3583331524,-0.2633091166],[36.3536178305,-0.2808133929],[36.3450842269,-0.2883846009],[36.3348858444,-0.3035512413],[36.3239549263,-0.3237836341],[36.3196148318,-0.3496039875],[36.3165150915,-0.3573037117],[36.3137748789,-0.3641102466],[36.3044070469,-0.3684219655],[36.2974568063,-0.3716209068],[36.2804856764,-0.3752093845],[36.2794540634,-0.3757543937],[36.2711449817,-0.3801441213],[36.2711468852,-0.3740355351],[36.2711468894,-0.3740188727],[36.2711377987,-0.3740188707],[36.2656679497,-0.3740171557],[36.2628314196,-0.3697810784]],[[36.3210979118,0.136720099],[36.3294149367,0.1367210315],[36.3294139826,0.1450941134],[36.3210969548,0.1450931228],[36.3210979118,0.136720099]],[[36.5289696753,-0.4243586727],[36.5289614637,-0.4494817633],[36.5372800501,-0.4494845936],[36.5372772181,-0.4578590092],[36.5622333219,-0.4578676002],[36.5622415794,-0.4327438815],[36.5539228543,-0.4327411833],[36.5539255122,-0.4243666622],[36.5289696753,-0.4243586727]],[[36.5987831066,-0.4160060178],[36.6038396852,-0.4207841488],[36.6038359782,-0.4327572309],[36.6121550114,-0.4327598723],[36.6121523658,-0.4411347549],[36.6204714588,-0.4411374391],[36.6204687719,-0.4495123733],[36.6290022656,-0.4495151681],[36.6400555219,-0.4776370837],[36.6438077712,-0.4952035024],[36.6474567676,-0.5238537975],[36.6537135224,-0.5409486291],[36.6537100054,-0.5500248261],[36.6596514347,-0.5500271757],[36.6620284009,-0.5528079162],[36.6620194793,-0.5751536611],[36.6703390441,-0.5751570875],[36.6703286286,-0.6002827814],[36.6536894745,-0.6002756165],[36.6536858783,-0.6086507473],[36.6453663632,-0.6086470955],[36.6453552362,-0.6337723353],[36.6536747905,-0.6337761379],[36.6536785363,-0.625401008],[36.6619981272,-0.625404747],[36.6619943947,-0.6337799261],[36.6680841322,-0.633782692],[36.6673540134,-0.636391252],[36.6667687121,-0.6421573055],[36.6619906125,-0.6421551067],[36.6619828992,-0.6589054652],[36.6681869244,-0.6589083937],[36.6691959379,-0.6622627534],[36.6748806277,-0.6676014195],[36.6897587028,-0.6690839027],[36.6952580519,-0.6673966012],[36.6952541743,-0.6756718374],[36.7035740948,-0.6756758053],[36.703570135,-0.6840512312],[36.7118901177,-0.6840552339],[36.7118861253,-0.6924307084],[36.7202061702,-0.6924347454],[36.720210149,-0.684059222],[36.7285302296,-0.6840631956],[36.7285380133,-0.6673120505],[36.736858112,-0.6673159127],[36.7368619175,-0.6589402912],[36.7285418319,-0.6589364775],[36.7285456031,-0.6505609042],[36.7368656749,-0.6505646694],[36.7368693843,-0.6421890473],[36.7451894906,-0.6421927504],[36.7452037946,-0.6086900659],[36.736883741,-0.608686556],[36.7368906309,-0.5919353077],[36.7285706507,-0.5919318818],[36.7285773729,-0.5751807312],[36.7452173332,-0.5751873768],[36.7452269827,-0.5500603573],[36.7369070145,-0.5500571854],[36.736910147,-0.54168156],[36.7285902383,-0.541678425],[36.728593334,-0.5333028479],[36.7119536843,-0.5332966409],[36.7119597752,-0.5165456808],[36.7202795538,-0.5165486913],[36.7202825156,-0.508173163],[36.7119627478,-0.5081702004],[36.7119685471,-0.4914192388],[36.7036488499,-0.4914163634],[36.7036555427,-0.4714169024],[36.707674718,-0.4662913843],[36.7202965982,-0.4662955133],[36.7202992703,-0.4579199818],[36.7369388289,-0.4579252928],[36.7369414317,-0.449549664],[36.7452612746,-0.4495522571],[36.7452687688,-0.4244252263],[36.7369489545,-0.4244227798],[36.7369537303,-0.4076715212],[36.7286339806,-0.4076691627],[36.7286408073,-0.3825424202],[36.7203211318,-0.3825401981],[36.7203254575,-0.3657891329],[36.7120058461,-0.3657870004],[36.7120119947,-0.3406605477],[36.7036924542,-0.3406585544],[36.7036944134,-0.3322831189],[36.6953749287,-0.3322811676],[36.6953805328,-0.3071550077],[36.6870611173,-0.3071531965],[36.6870679307,-0.2736518454],[36.6787485888,-0.2736502268],[36.6787501739,-0.2652749391],[36.670430887,-0.2652733644],[36.6704324292,-0.2568981245],[36.6537940148,-0.2568950583],[36.6537955182,-0.2485199192],[36.6371573138,-0.2485169327],[36.6371587785,-0.2401418941],[36.6122018633,-0.2401375251],[36.6122032918,-0.2317626387],[36.595565612,-0.2317598037],[36.5955669995,-0.2233850206],[36.5789295335,-0.2233822681],[36.5789281365,-0.2317569489],[36.5706094758,-0.2317555142],[36.5706065175,-0.2485047719],[36.5622878982,-0.2485032282],[36.5622863364,-0.2568778048],[36.5706049609,-0.2568794005],[36.5706033528,-0.2652540291],[36.5622847227,-0.2652523814],[36.5622830574,-0.2736269578],[36.5539644734,-0.2736252531],[36.5539627504,-0.2819997772],[36.5456442125,-0.2819980126],[36.545636776,-0.315495898],[36.553955339,-0.3154978712],[36.5539513216,-0.3322469178],[36.5622699502,-0.3322489897],[36.5622635564,-0.3573727141],[36.5705822585,-0.357374935],[36.5705754221,-0.382498814],[36.5763118939,-0.3825004477],[36.5788919272,-0.3905199451],[36.5788918253,-0.390875861],[36.5790064425,-0.3908758942],[36.5814038011,-0.3983277207],[36.5872067746,-0.4042630908],[36.5872057768,-0.4076277315],[36.5904973148,-0.4076287242],[36.5955231468,-0.4127692719],[36.5955221707,-0.4160050185],[36.5987831066,-0.4160060178]]]}},{"type":"Feature","properties":{"country":"Kenya","country_code":"KEN","species_name":"Eucalyptus_nitens","genus":"Eucalyptus","species":"nitens","suitability_name":"Very suitable","suitability_rank":1,"source_layer":"KCFP_SSMT_Kenya","tz":null,"soil_description":null},"geometry":{"type":"Polygon","coordinates":[[[36.0956888562,-0.2521854274],[36.1042507955,-0.2400386543],[36.1048502308,-0.2400387813],[36.1048484249,-0.2484714794],[36.0956888562,-0.2521854274]]]}},{"type":"Feature","properties":{"country":"Kenya","country_code":"KEN","species_name":"Eucalyptus_nitens","genus":"Eucalyptus","species":"nitens","suitability_name":"Very suitable","suitability_rank":1,"source_layer":"KCFP_SSMT_Kenya","tz":null,"soil_description":null},"geometry":{"type":"Polygon","coordinates":[[[36.2711926151,0.1709335862],[36.2711889253,0.1953231792],[36.2628722769,0.1953218167],[36.2628708933,0.2036944357],[36.2711875441,0.2036958566],[36.2711846097,0.2204412111],[36.2795013283,0.2204427433],[36.2795094117,0.1702063311],[36.27164109,0.1702052122],[36.2711926151,0.1709335862]]]}},{"type":"Feature","properties":{"country":"Kenya","country_code":"KEN","species_name":"Eucalyptus_nitens","genus":"Eucalyptus","species":"nitens","suitability_name":"Very suitable","suitability_rank":1,"source_layer":"KCFP_SSMT_Kenya","tz":null,"soil_description":null},"geometry":{"type":"Polygon","coordinates":[[[36.2628663902,0.2288122921],[36.2379167443,0.2288074738],[36.2379134225,0.2455523573],[36.2545464819,0.2455558101],[36.254548162,0.2371832502],[36.2628647733,0.2371849098],[36.2628663902,0.2288122921]]]}},{"type":"Feature","properties":{"country":"Kenya","country_code":"KEN","species_name":"Eucalyptus_nitens","genus":"Eucalyptus","species":"nitens","suitability_name":"Very suitable","suitability_rank":1,"source_layer":"KCFP_SSMT_Kenya","tz":null,"soil_description":null},"geometry":{"type":"Polygon","coordinates":[[[36.2129606859,0.2622916688],[36.2212770207,0.2622935319],[36.2212751442,0.2706658544],[36.2295915427,0.2706677721],[36.2295952265,0.2539230066],[36.2165943398,0.2539201931],[36.2129615417,0.2584008888],[36.2129606859,0.2622916688]]]}},{"type":"Feature","properties":{"country":"Kenya","country_code":"KEN","species_name":"Eucalyptus_nitens","genus":"Eucalyptus","species":"nitens","suitability_name":"Very suitable","suitability_rank":1,"source_layer":"KCFP_SSMT_Kenya","tz":null,"soil_description":null},"geometry":{"type":"Polygon","coordinates":[[[36.2046385676,0.2874064118],[36.204636501,0.2957786157],[36.2129528001,0.2957807229],[36.2129548596,0.2874084594],[36.2046385676,0.2874064118]]]}},{"type":"Feature","properties":{"country":"Kenya","country_code":"KEN","species_name":"Eucalyptus_nitens","genus":"Eucalyptus","species":"nitens","suitability_name":"Very suitable","suitability_rank":1,"source_layer":"KCFP_SSMT_Kenya","tz":null,"soil_description":null},"geometry":{"type":"Polygon","coordinates":[[[36.6035634683,-0.9687458667],[36.5952538854,-0.968739939],[36.5952538965,-0.9687255612],[36.5952435523,-0.9687255547],[36.5952552547,-0.9519904121],[36.5869457317,-0.9519845649],[36.5869457409,-0.9519701239],[36.5869354301,-0.9519701166],[36.5869412205,-0.9436098496],[36.5786317355,-0.9436040348],[36.5786317455,-0.9435895613],[36.5786214662,-0.9435895541],[36.5786272243,-0.935229369],[36.5703177798,-0.9352235869],[36.5703177898,-0.9352090809],[36.5703075421,-0.9352090738],[36.5703132683,-0.9268489734],[36.5567313295,-0.9268395625],[36.5567282433,-0.9268250238],[36.5563903567,-0.9252334357],[36.5623591455,-0.9222854129],[36.571280182,-0.9248710203],[36.5753694315,-0.9268379255],[36.5786421609,-0.9284120879],[36.5795074335,-0.9288282793],[36.5886268188,-0.935092938],[36.5945669316,-0.9436006938],[36.5952706948,-0.9446086685],[36.5974840594,-0.9477787877],[36.6095420517,-0.9602614088],[36.6170254809,-0.97271391],[36.6158596596,-0.9768368061],[36.6174333744,-0.981442785],[36.6162177854,-1.0008859072],[36.611470256,-1.0273613732],[36.6035313995,-1.0273553868],[36.6035437738,-1.010619922],[36.6118534888,-1.0106118702],[36.6118775534,-0.9771266447],[36.6035575568,-0.9771206781],[36.6035634683,-0.9687458667]]]}},{"type":"Feature","properties":{"country":"Kenya","country_code":"KEN","species_name":"Eucalyptus_nitens","genus":"Eucalyptus","species":"nitens","suitability_name":"Very suitable","suitability_rank":1,"source_layer":"KCFP_SSMT_Kenya","tz":null,"soil_description":null},"geometry":{"type":"Polygon","coordinates":[[[36.4894688912,-0.8706696776],[36.4871728275,-0.8629177456],[36.4871760526,-0.8579902545],[36.4925779774,-0.855224716],[36.4953455264,-0.8524754575],[36.4871850353,-0.84411983],[36.4872119222,-0.8011642764],[36.4955308295,-0.8011694065],[36.4955381673,-0.7890008412],[36.5010890073,-0.7975814999],[36.5141892494,-0.8191308798],[36.5162975443,-0.8396892283],[36.5167409655,-0.8676170191],[36.5203131465,-0.8782600069],[36.5223242063,-0.8849631581],[36.5250162978,-0.8912123667],[36.5238399208,-0.8944398759],[36.5148962756,-0.8966895146],[36.5121084701,-0.8955862668],[36.5121100129,-0.8932966378],[36.5063127861,-0.8932926802],[36.5037919363,-0.8916100652],[36.5037964301,-0.8849167368],[36.4957707657,-0.8849112887],[36.4954777355,-0.8842490648],[36.4954828846,-0.8765369233],[36.4920641266,-0.8765346181],[36.4894688912,-0.8706696776]]]}},{"type":"Feature","properties":{"country":"Kenya","country_code":"KEN","species_name":"Eucalyptus_nitens","genus":"Eucalyptus","species":"nitens","suitability_name":"Very suitable","suitability_rank":1,"source_layer":"KCFP_SSMT_Kenya","tz":null,"soil_description":null},"geometry":{"type":"Polygon","coordinates":[[[36.5275072856,-0.8679202531],[36.5257706019,-0.8568308222],[36.5233408324,-0.8203420577],[36.5157444346,-0.7972174669],[36.4955465622,-0.7748432505],[36.4955651408,-0.742550206],[36.4872463473,-0.7425454522],[36.4872781572,-0.6839266099],[36.4789595211,-0.6839222162],[36.4789638662,-0.6755481481],[36.470645298,-0.6755437938],[36.4706525843,-0.6613107795],[36.484795128,-0.6679959055],[36.4953482055,-0.692528691],[36.5071867227,-0.7274538193],[36.5205133377,-0.7576650857],[36.5206652605,-0.7580094999],[36.5263668519,-0.7760651614],[36.5288072207,-0.7837934704],[36.5288172883,-0.7838253546],[36.536292912,-0.8049648873],[36.5384592995,-0.8195244778],[36.5399338006,-0.834764673],[36.5409445978,-0.8497698998],[36.5406402509,-0.8585422484],[36.5364417821,-0.8675190112],[36.5287653579,-0.8678637552],[36.5287552702,-0.8678642086],[36.5275072856,-0.8679202531]]]}},{"type":"Feature","properties":{"country":"Kenya","country_code":"KEN","species_name":"Eucalyptus_nitens","genus":"Eucalyptus","species":"nitens","suitability_name":"Very suitable","suitability_rank":1,"source_layer":"KCFP_SSMT_Kenya","tz":null,"soil_description":null},"geometry":{"type":"Polygon","coordinates":[[[36.4457287624,-0.5965692866],[36.4457347633,-0.5834182655],[36.440366479,-0.583415809],[36.4374196997,-0.5764298083],[36.4374348303,-0.5415454548],[36.4291167373,-0.5415419069],[36.4291304208,-0.5080469215],[36.4347988315,-0.50804919],[36.4411506576,-0.5209217422],[36.454055881,-0.5545716407],[36.4634572467,-0.57726742],[36.458605914,-0.5965029506],[36.4594503291,-0.6001882058],[36.4623479927,-0.6128347278],[36.4625784545,-0.6138405748],[36.462345817,-0.6174379142],[36.4618376424,-0.6252954103],[36.4596730689,-0.6252943557],[36.4543046903,-0.6177128966],[36.4540374611,-0.6170540417],[36.4540414814,-0.608543788],[36.4505850384,-0.6085421446],[36.4457287624,-0.5965692866]],[[36.4457529769,-0.5415489913],[36.445756457,-0.5331751354],[36.4374383218,-0.5331716535],[36.4374348303,-0.5415454548],[36.4457529769,-0.5415489913]]]}},{"type":"Feature","properties":{"country":"Kenya","country_code":"KEN","species_name":"Eucalyptus_nitens","genus":"Eucalyptus","species":"nitens","suitability_name":"Very suitable","suitability_rank":1,"source_layer":"KCFP_SSMT_Kenya","tz":null,"soil_description":null},"geometry":{"type":"Polygon","coordinates":[[[36.332748395,-0.3949207989],[36.3376681466,-0.3923799524],[36.3380457047,-0.3921849587],[36.3434441721,-0.4030669507],[36.3447205784,-0.4143815316],[36.3452537148,-0.4159077075],[36.3293525546,-0.4159023034],[36.3293546122,-0.4097388344],[36.3303497064,-0.4087509722],[36.3320108161,-0.3991735811],[36.332748395,-0.3949207989]]]}},{"type":"Feature","properties":{"country":"Kenya","country_code":"KEN","species_name":"Eucalyptus_nitens","genus":"Eucalyptus","species":"nitens","suitability_name":"Very suitable","suitability_rank":1,"source_layer":"KCFP_SSMT_Kenya","tz":null,"soil_description":null},"geometry":{"type":"Polygon","coordinates":[[[36.3361465098,-0.3439408479],[36.3380850825,-0.3317240261],[36.3438813513,-0.3223003638],[36.3504435182,-0.3324915403],[36.3561559345,-0.3334514336],[36.3553774939,-0.3238053091],[36.3626491944,-0.3238240727],[36.3626447554,-0.3405538289],[36.3626353113,-0.3405538254],[36.3543273835,-0.3405515328],[36.3543273789,-0.3405683246],[36.3543250711,-0.3489247813],[36.3460077472,-0.3489224214],[36.3460029387,-0.3656688065],[36.3543202776,-0.3656712798],[36.3543126661,-0.3907910253],[36.346375841,-0.3907885032],[36.3459865404,-0.3888175204],[36.3427826933,-0.3725973722],[36.3361465098,-0.3439408479]]]}},{"type":"Feature","properties":{"country":"Kenya","country_code":"KEN","species_name":"Eucalyptus_nitens","genus":"Eucalyptus","species":"nitens","suitability_name":"Very suitable","suitability_rank":1,"source_layer":"KCFP_SSMT_Kenya","tz":null,"soil_description":null},"geometry":{"type":"Polygon","coordinates":[[[36.3549534055,-0.3154319429],[36.3549304547,-0.3149788339],[36.3604652092,-0.3106293874],[36.3677933231,-0.3154352226],[36.3549534055,-0.3154319429]]]}},{"type":"Feature","properties":{"country":"Kenya","country_code":"KEN","species_name":"Eucalyptus_nitens","genus":"Eucalyptus","species":"nitens","suitability_name":"Very suitable","suitability_rank":1,"source_layer":"KCFP_SSMT_Kenya","tz":null,"soil_description":null},"geometry":{"type":"Polygon","coordinates":[[[36.6035061094,-1.0471692057],[36.6035251193,-1.035744346],[36.6082618366,-1.0357479494],[36.6035164935,-1.0471584135],[36.6035061094,-1.0471692057]]]}},{"type":"Feature","properties":{"country":"Kenya","country_code":"KEN","species_name":"Eucalyptus_nitens","genus":"Eucalyptus","species":"nitens","suitability_name":"Very suitable","suitability_rank":1,"source_layer":"KCFP_SSMT_Kenya","tz":null,"soil_description":null},"geometry":{"type":"Polygon","coordinates":[[[36.6114677193,-1.0273755234],[36.6035210228,-1.027355379],[36.611470256,-1.0273613732],[36.6114677193,-1.0273755234]]]}},{"type":"Feature","properties":{"country":"Kenya","country_code":"KEN","species_name":"Eucalyptus_nitens","genus":"Eucalyptus","species":"nitens","suitability_name":"Very suitable","suitability_rank":1,"source_layer":"KCFP_SSMT_Kenya","tz":null,"soil_description":null},"geometry":{"type":"Polygon","coordinates":[[[37.1114054462,-0.3323701008],[37.1030837793,-0.3323684948],[37.1030853579,-0.3239909071],[37.0864543941,-0.3239877587],[37.0864437108,-0.3156102491],[37.078122179,-0.3156087039],[37.0781251736,-0.2988537728],[37.0698036956,-0.2988523033],[37.069804915,-0.2917848593],[37.0698065391,-0.282097454],[37.0614851143,-0.2820960619],[37.0614858991,-0.2773145747],[37.0808611898,-0.2676100162],[37.0908338859,-0.2533506671],[37.0903254469,-0.2307156455],[37.098200233,-0.2203760201],[37.0992162991,-0.209296379],[37.0954154479,-0.1984249708],[37.0858487991,-0.1909727166],[37.072842742,-0.1848956949],[37.0709498273,-0.175843083],[37.072466498,-0.1684793823],[37.0774729343,-0.1516723537],[37.0884675925,-0.1249548099],[37.1128117653,-0.0883848644],[37.1514676391,-0.0403548072],[37.1741872176,-0.0181093041],[37.2100418512,0.0111315099],[37.2196331883,0.0111315683],[37.2196331552,0.0157030078],[37.2445866175,0.0266102632],[37.247698863,0.0278701183],[37.252908754,0.0299791183],[37.2668521326,0.0356235248],[37.2661416566,0.0362487453],[37.2566002492,0.0446451536],[37.2695529529,0.0446454618],[37.2695658951,0.0446454621],[37.2695656813,0.0530055442],[37.2695654297,0.0614022601],[37.2778877628,0.0614025298],[37.2778874764,0.0697809657],[37.2945192182,0.0697815758],[37.2945322558,0.0697815763],[37.2945319366,0.0781416706],[37.2945319359,0.0781600855],[37.3028413121,0.0781604244],[37.3028543829,0.078160425],[37.3028540284,0.0865205239],[37.3028540276,0.0865389705],[37.3111634101,0.086539343],[37.3111765107,0.0865393445],[37.3111761239,0.0948994461],[37.3194986439,0.0949183336],[37.3194982215,0.1032969513],[37.3444660066,0.10329827],[37.3444655544,0.1116769947],[37.3527882223,0.1116774656],[37.3527877392,0.1200562255],[37.3611104427,0.1200567301],[37.3611099273,0.1284355242],[37.3694326691,0.1284360602],[37.3694315386,0.1451937192],[37.3527860763,0.1451925051],[37.3527854523,0.1535712639],[37.3361401237,0.1535699658],[37.3361394581,0.1619486537],[37.3278168452,0.161947965],[37.327816321,0.1682117034],[37.3330609878,0.169211479],[37.3444487163,0.1639291307],[37.3444488804,0.1619306025],[37.3487563742,0.1619309563],[37.3583597848,0.1574762365],[37.385488259,0.1619339347],[37.3860624925,0.1619339807],[37.3860631382,0.1535551142],[37.4027088168,0.153556374],[37.4027094227,0.1451774386],[37.4110457969,0.1451780292],[37.4144700028,0.1451782721],[37.4276781866,0.1451792009],[37.4276787467,0.1368188041],[37.4276787488,0.1368001638],[37.4276923002,0.1368001646],[37.4609708891,0.1368023362],[37.4609714067,0.1284231668],[37.4776176673,0.1284241706],[37.4776181469,0.1200449338],[37.5025877734,0.120046323],[37.5025873017,0.1284256549],[37.5275572234,0.1284271155],[37.5275576864,0.1200476884],[37.5442044526,0.1200485859],[37.5442048804,0.1116690942],[37.5525283071,0.111669509],[37.5525287016,0.1032899862],[37.5691756427,0.1032907453],[37.5691766302,0.0781519947],[37.5775001407,0.0781522803],[37.5775006441,0.0613930512],[37.5691771366,0.0613928275],[37.5691773513,0.0527000347],[37.5691777475,-0.0307825923],[37.5775012515,-0.0307827053],[37.5775005654,-0.0643011621],[37.5858241037,-0.064301395],[37.585823858,-0.0726810394],[37.5775003184,-0.0726807762],[37.5774995981,-0.0928914821],[37.5774982011,-0.1229584602],[37.5858217531,-0.1229589055],[37.585820811,-0.1397181937],[37.5774972535,-0.1397176878],[37.5774961849,-0.1564769151],[37.5691726513,-0.1564763452],[37.5691701369,-0.1899946778],[37.5608466191,-0.1899939808],[37.5608444012,-0.2151326376],[37.5525209012,-0.2151318439],[37.5525192593,-0.2318908856],[37.5441957815,-0.2318900262],[37.5441949099,-0.2402695167],[37.5525183936,-0.2402704063],[37.5525174962,-0.2486499268],[37.5441940074,-0.2486490062],[37.5441930739,-0.2570284947],[37.5358696107,-0.2570275366],[37.5358676397,-0.2737864526],[37.5275441955,-0.2737854272],[37.5275431584,-0.2821648527],[37.5192197405,-0.282163789],[37.5192186643,-0.2905431837],[37.502571911,-0.2905409754],[37.5025696416,-0.3072996361],[37.4942463,-0.307298458],[37.4942451105,-0.3156777564],[37.4859217935,-0.3156765404],[37.4859180123,-0.3408143371],[37.4775947085,-0.340813017],[37.4775933765,-0.3491922492],[37.4526236352,-0.349188145],[37.4526222476,-0.3575672794],[37.4110066349,-0.3575601216],[37.4110051771,-0.3659390873],[37.3943591528,-0.3659361027],[37.3943606258,-0.3575572045],[37.3777147523,-0.3575542579],[37.3777132632,-0.365933087],[37.3610675124,-0.3659300403],[37.3610659749,-0.3743087995],[37.3277748614,-0.3743024712],[37.3277732563,-0.3826810886],[37.3194505583,-0.3826794517],[37.3194489087,-0.3910580322],[37.286158443,-0.3910512545],[37.2861567252,-0.3994296914],[37.2695116944,-0.3994261791],[37.2695081143,-0.4161829022],[37.2528631953,-0.4161792082],[37.2528627202,-0.4183322819],[37.2528613328,-0.4245574955],[37.2112496438,-0.4245479145],[37.2112515506,-0.4161698153],[37.202929335,-0.4161679114],[37.2029303731,-0.4115564112],[37.2029330526,-0.3994117901],[37.1946108915,-0.3994099543],[37.1946127009,-0.3910319324],[37.1813179241,-0.3910290426],[37.1552318014,-0.39102331],[37.1530025202,-0.3910228164],[37.1530043321,-0.3826449904],[37.1280387176,-0.3826395402],[37.1280439879,-0.3575064167],[37.1197222191,-0.3575047044],[37.1197255484,-0.3407493682],[37.1114038343,-0.3407477289],[37.1114054462,-0.3323701008]],[[37.2445845915,-0.0913117102],[37.2292617084,-0.1063868504],[37.2197286621,-0.1234215403],[37.2205311672,-0.1313150505],[37.2196158259,-0.1313149858],[37.2196145654,-0.1480712671],[37.2112925012,-0.1480705925],[37.2112910819,-0.1648267972],[37.2196131518,-0.1648275481],[37.2196098734,-0.1983401093],[37.22278028,-0.1983404524],[37.2220549856,-0.2007948109],[37.2212800072,-0.2123280801],[37.2279292936,-0.2222935867],[37.2279291523,-0.2234755427],[37.2287179901,-0.2234756385],[37.2359794407,-0.234358743],[37.236249905,-0.2350889315],[37.2362492523,-0.2402329824],[37.2381553644,-0.24023323],[37.2445691838,-0.2575493548],[37.2445680985,-0.2653688203],[37.2528903722,-0.2653700076],[37.2528879465,-0.2821265869],[37.2612102697,-0.2821278423],[37.2612090081,-0.2905061694],[37.2695313735,-0.2905074568],[37.2695326299,-0.2821290926],[37.2778550269,-0.2821303351],[37.2778537765,-0.2905087363],[37.3028212053,-0.2905125403],[37.3028224367,-0.2821340294],[37.311144979,-0.2821352488],[37.3111462445,-0.2732259371],[37.3189025408,-0.2653792189],[37.3277924938,-0.2653804314],[37.3277932098,-0.2599880675],[37.3409499437,-0.2557639244],[37.3447489908,-0.2486253438],[37.3527626596,-0.248626353],[37.3527636806,-0.2402476268],[37.3694091703,-0.2402496373],[37.3694101473,-0.231870841],[37.3860557656,-0.2318727617],[37.3860575942,-0.2151150308],[37.3943804464,-0.2151159139],[37.3943821299,-0.1983581129],[37.4027050066,-0.1983589239],[37.4027057922,-0.189979989],[37.4110286996,-0.1899807617],[37.4110308443,-0.1648438542],[37.4193537724,-0.1648445211],[37.4193544173,-0.1564655179],[37.4276773766,-0.1564661477],[37.4276785575,-0.1397080735],[37.4360015439,-0.1397086329],[37.4360020814,-0.1313295622],[37.4692943462,-0.1313316375],[37.4692948397,-0.1229524343],[37.4859411626,-0.1229533901],[37.4859416186,-0.1145741217],[37.4942648259,-0.1145745625],[37.4942656361,-0.0978159619],[37.5025888718,-0.0978163369],[37.502589551,-0.0810576711],[37.49426632,-0.0810573603],[37.494266875,-0.0642987576],[37.4859436782,-0.0642985107],[37.485943909,-0.0559192421],[37.4776207473,-0.0559190253],[37.4776209461,-0.0475397891],[37.469297817,-0.0475396039],[37.4692979862,-0.0391603994],[37.4609748906,-0.0391602469],[37.4609750271,-0.0307810761],[37.4526519639,-0.0307809549],[37.4526520692,-0.0224018171],[37.4443290395,-0.0224017275],[37.4443291114,-0.014022623],[37.4276831539,-0.0140225119],[37.427683194,-0.0056434743],[37.4193602647,-0.0056434506],[37.4193602436,0.0111145563],[37.4027144874,0.0111144661],[37.4027144254,0.0194934029],[37.3611006302,0.0194929994],[37.3611007226,0.0027354746],[37.3361328633,0.0027354391],[37.3361328563,-0.0056432178],[37.3028428729,-0.0056431201],[37.3028428315,-0.0140216341],[37.2945204243,-0.0140215732],[37.2945203464,-0.0224000499],[37.286197975,-0.0223999521],[37.2861978604,-0.0307783922],[37.2778755249,-0.0307782572],[37.2778751828,-0.0475350639],[37.2695528841,-0.0475348544],[37.2695524122,-0.0637282752],[37.2690646233,-0.0642915705],[37.2612301272,-0.0642913016],[37.2612298252,-0.0726696317],[37.2529075954,-0.0726693084],[37.2529071724,-0.0829499124],[37.2518911045,-0.0841232369],[37.2465016941,-0.0894255846],[37.2445846812,-0.0894254924],[37.2445845915,-0.0913117102]]]}}]}